{"type":"FeatureCollection","features":[{"type":"Feature","properties":{"policy_type":"스마트복합쉼터","rank":1,"name":"동화울수변공원","dong":"관평동","grid_id":"다바905253","grid_ids":["다바905253"],"score":65.328911,"review_group":"1차 검토","climate_exposure":82.916054,"activity_score":65.328911,"activity_percentile":95.68736,"activity_grade":5,"resident_population":0,"resi_score":null,"resi_percentile":null,"resi_grade":0,"population_500m":3244,"activity_percentile_500m":86.96865793333333,"activity_grade45_grids_500m":38,"activity_grade5_grids_500m":20,"resident_grade45_pop_500m":3210,"resident_grade5_pop_500m":1308,"core_judgment":"기후노출도와 활동 취약도가 모두 매우 높고, 500m 내 활동 4·5등급 격자와 취약인구가 집중되어 최우선 검토가 필요함.","site_checks":"계절성 물놀이 이용량, 전기·통신 인입, 수변 안전·침수 가능성 확인","note":"기후노출도와 활동 취약도가 모두 매우 높고, 500m 내 활동 4·5등급 격자와 취약인구가 집중되어 최우선 검토가 필요함.","detail":"계절성 물놀이 이용량, 전기·통신 인입, 수변 안전·침수 가능성 확인","source":"yuseong_smart_multi_shelter_candidate_analysis(4).xlsx"},"geometry":{"type":"Polygon","coordinates":[[[127.394021,36.426091],[127.395136,36.426091],[127.395138,36.42519],[127.394022,36.425189],[127.394021,36.426091]]]}},{"type":"Feature","properties":{"policy_type":"스마트복합쉼터","rank":2,"name":"학무정어린이공원","dong":"학하동","grid_id":"다바831157","grid_ids":["다바831157"],"score":65.495184,"review_group":"1차 검토","climate_exposure":79.881747,"activity_score":65.495184,"activity_percentile":95.910979,"activity_grade":5,"resident_population":0,"resi_score":null,"resi_percentile":null,"resi_grade":0,"population_500m":1320,"activity_percentile_500m":90.75491980821917,"activity_grade45_grids_500m":57,"activity_grade5_grids_500m":43,"resident_grade45_pop_500m":1155,"resident_grade5_pop_500m":488,"core_judgment":"활동 취약도·대응능력 부족도가 최상위권이며, 500m 내 활동 5등급 격자가 다수 분포하여 직접적인 폭염 대응효과가 기대됨.","site_checks":"어린이시설 안전거리, 운동시설 동선, 평탄부와 전기 인입 확인","note":"활동 취약도·대응능력 부족도가 최상위권이며, 500m 내 활동 5등급 격자가 다수 분포하여 직접적인 폭염 대응효과가 기대됨.","detail":"어린이시설 안전거리, 운동시설 동선, 평탄부와 전기 인입 확인","source":"yuseong_smart_multi_shelter_candidate_analysis(4).xlsx"},"geometry":{"type":"Polygon","coordinates":[[[127.311678,36.339442],[127.312792,36.339443],[127.312794,36.338542],[127.31168,36.33854],[127.311678,36.339442]]]}},{"type":"Feature","properties":{"policy_type":"스마트복합쉼터","rank":3,"name":"창리어린이공원","dong":"온천1동","grid_id":"다바850175","grid_ids":["다바850175"],"score":60.404586,"review_group":"1차 검토","climate_exposure":80.457883,"activity_score":60.404586,"activity_percentile":85.198594,"activity_grade":4,"resident_population":191,"resi_score":64.065122,"resi_percentile":91.634981,"resi_grade":5,"population_500m":9973,"activity_percentile_500m":76.23662631578947,"activity_grade45_grids_500m":35,"activity_grade5_grids_500m":8,"resident_grade45_pop_500m":9838,"resident_grade5_pop_500m":6843,"core_judgment":"활동 4등급과 거주 5등급이 동시에 나타나며, 500m 내 거주 4·5등급 인구가 매우 많아 온천1동 최우선 대안임.","site_checks":"공원 출입 동선, 고령층 이용시간, 기존 무더위쉼터 중복 여부 확인","note":"활동 4등급과 거주 5등급이 동시에 나타나며, 500m 내 거주 4·5등급 인구가 매우 많아 온천1동 최우선 대안임.","detail":"공원 출입 동선, 고령층 이용시간, 기존 무더위쉼터 중복 여부 확인","source":"yuseong_smart_multi_shelter_candidate_analysis(4).xlsx"},"geometry":{"type":"Polygon","coordinates":[[[127.332815,36.355701],[127.33393,36.355702],[127.333932,36.354801],[127.332817,36.354799],[127.332815,36.355701]]]}},{"type":"Feature","properties":{"policy_type":"스마트복합쉼터","rank":4,"name":"장대놀이터","dong":"온천2동","grid_id":"다바852179","grid_ids":["다바852179"],"score":60.633208,"review_group":"1차 검토","climate_exposure":80.71516,"activity_score":60.633208,"activity_percentile":85.997231,"activity_grade":4,"resident_population":64,"resi_score":64.265097,"resi_percentile":92.178164,"resi_grade":5,"population_500m":9784,"activity_percentile_500m":77.05844364935065,"activity_grade45_grids_500m":40,"activity_grade5_grids_500m":10,"resident_grade45_pop_500m":9117,"resident_grade5_pop_500m":4085,"core_judgment":"활동 4등급·거주 5등급의 복합 취약지이며, 500m 생활권 인구와 취약인구가 모두 많아 설치 당위성이 높음.","site_checks":"공공부지·공원 지정 여부, 관리부서, 야간 치안과 전기 인입 확인","note":"활동 4등급·거주 5등급의 복합 취약지이며, 500m 생활권 인구와 취약인구가 모두 많아 설치 당위성이 높음.","detail":"공공부지·공원 지정 여부, 관리부서, 야간 치안과 전기 인입 확인","source":"yuseong_smart_multi_shelter_candidate_analysis(4).xlsx"},"geometry":{"type":"Polygon","coordinates":[[[127.335037,36.35931],[127.336152,36.359312],[127.336153,36.35841],[127.335039,36.358409],[127.335037,36.35931]]]}},{"type":"Feature","properties":{"policy_type":"스마트복합쉼터","rank":5,"name":"들말어린이공원","dong":"온천1동","grid_id":"다바852173","grid_ids":["다바852173"],"score":56.665488,"review_group":"온천1동 대안","climate_exposure":80.276608,"activity_score":56.665488,"activity_percentile":70.056437,"activity_grade":3,"resident_population":132,"resi_score":61.433252,"resi_percentile":85.877241,"resi_grade":5,"population_500m":12553,"activity_percentile_500m":67.51943349999999,"activity_grade45_grids_500m":24,"activity_grade5_grids_500m":5,"resident_grade45_pop_500m":12347,"resident_grade5_pop_500m":8335,"core_judgment":"500m 내 총인구와 거주 취약인구가 가장 많지만 직접 활동 취약도가 3등급이므로 인구 보호를 중시할 때 대안으로 검토 가능함.","site_checks":"창리 후보와의 서비스권역 중복, 대규모 인구 보호효과와 이용량 비교","note":"500m 내 총인구와 거주 취약인구가 가장 많지만 직접 활동 취약도가 3등급이므로 인구 보호를 중시할 때 대안으로 검토 가능함.","detail":"창리 후보와의 서비스권역 중복, 대규모 인구 보호효과와 이용량 비교","source":"yuseong_smart_multi_shelter_candidate_analysis(4).xlsx"},"geometry":{"type":"Polygon","coordinates":[[[127.335048,36.353901],[127.336163,36.353902],[127.336165,36.353001],[127.33505,36.352999],[127.335048,36.353901]]]}},{"type":"Feature","properties":{"policy_type":"스마트복합쉼터","rank":6,"name":"삼정어린이공원","dong":"온천1동","grid_id":"다바848172","grid_ids":["다바848172"],"score":57.852217,"review_group":"온천1동 대안","climate_exposure":80.312043,"activity_score":57.852217,"activity_percentile":75.455223,"activity_grade":3,"resident_population":177,"resi_score":63.958599,"resi_percentile":91.472026,"resi_grade":5,"population_500m":8893,"activity_percentile_500m":67.14351368421053,"activity_grade45_grids_500m":25,"activity_grade5_grids_500m":5,"resident_grade45_pop_500m":8080,"resident_grade5_pop_500m":6418,"core_judgment":"정확 격자의 거주 취약도는 5등급이며 취약인구가 많지만, 활동 취약도는 3등급으로 창리 후보보다 우선도가 낮음.","site_checks":"창리 후보와의 서비스권역 중복, 주민 이용량 비교","note":"정확 격자의 거주 취약도는 5등급이며 취약인구가 많지만, 활동 취약도는 3등급으로 창리 후보보다 우선도가 낮음.","detail":"창리 후보와의 서비스권역 중복, 주민 이용량 비교","source":"yuseong_smart_multi_shelter_candidate_analysis(4).xlsx"},"geometry":{"type":"Polygon","coordinates":[[[127.330592,36.352993],[127.331707,36.352995],[127.331709,36.352093],[127.330594,36.352092],[127.330592,36.352993]]]}},{"type":"Feature","properties":{"policy_type":"스마트복합쉼터","rank":7,"name":"속들어린이공원","dong":"노은1동","grid_id":"다바839190 외 3개 격자","grid_ids":["다바839190","다바840190","다바839189","다바840189"],"score":66.69129425,"review_group":"1차 검토","climate_exposure":83.593194,"activity_score":66.69129425,"activity_percentile":97.212757,"activity_grade":5,"resident_population":543,"resi_score":60.81525775,"resi_percentile":82.83541550000001,"resi_grade":5,"population_500m":10263,"activity_percentile_500m":84.78599896202532,"activity_grade45_grids_500m":56,"activity_grade5_grids_500m":28,"resident_grade45_pop_500m":3927,"resident_grade5_pop_500m":1259,"core_judgment":"공원 일대 4개 격자가 모두 활동 5등급이며 주변 인구 규모가 커 생활권 단위 보호효과가 큼.","site_checks":"4개 격자 경계점이 아닌 공원 내부 안전공간 선정, 출입구·CCTV·수목 보전 확인","note":"공원 일대 4개 격자가 모두 활동 5등급이며 주변 인구 규모가 커 생활권 단위 보호효과가 큼.","detail":"4개 격자 경계점이 아닌 공원 내부 안전공간 선정, 출입구·CCTV·수목 보전 확인","source":"yuseong_smart_multi_shelter_candidate_analysis(4).xlsx"},"geometry":{"type":"Polygon","coordinates":[[[127.322758,36.367406],[127.321643,36.367405],[127.320528,36.367403],[127.320526,36.368305],[127.320524,36.369206],[127.321639,36.369208],[127.322754,36.369209],[127.322756,36.368308],[127.322758,36.367406]]]}},{"type":"Feature","properties":{"policy_type":"스마트복합쉼터","rank":8,"name":"봉산어린이공원","dong":"구즉동","grid_id":"다바899264","grid_ids":["다바899264"],"score":58.828906,"review_group":"2차 검토","climate_exposure":84.552514,"activity_score":58.828906,"activity_percentile":79.778511,"activity_grade":4,"resident_population":140,"resi_score":64.233773,"resi_percentile":92.069527,"resi_grade":5,"population_500m":11533,"activity_percentile_500m":68.81574746052631,"activity_grade45_grids_500m":26,"activity_grade5_grids_500m":10,"resident_grade45_pop_500m":8413,"resident_grade5_pop_500m":2096,"core_judgment":"후보 중 기후노출도가 가장 높고 정확 격자의 거주 취약도가 5등급으로, 주민 보호 중심의 설치 필요성이 큼.","site_checks":"주민 이용량, 휴게시설 중복, 배수와 수목 보전 여부 확인","note":"후보 중 기후노출도가 가장 높고 정확 격자의 거주 취약도가 5등급으로, 주민 보호 중심의 설치 필요성이 큼.","detail":"주민 이용량, 휴게시설 중복, 배수와 수목 보전 여부 확인","source":"yuseong_smart_multi_shelter_candidate_analysis(4).xlsx"},"geometry":{"type":"Polygon","coordinates":[[[127.387313,36.436001],[127.388429,36.436002],[127.38843,36.435101],[127.387314,36.4351],[127.387313,36.436001]]]}},{"type":"Feature","properties":{"policy_type":"스마트복합쉼터","rank":9,"name":"원내어린이공원","dong":"진잠동","grid_id":"다바836114","grid_ids":["다바836114"],"score":60.555886,"review_group":"2차 검토","climate_exposure":81.875424,"activity_score":60.555886,"activity_percentile":85.699074,"activity_grade":4,"resident_population":86,"resi_score":60.443615,"resi_percentile":82.618142,"resi_grade":4,"population_500m":9870,"activity_percentile_500m":67.72974127631579,"activity_grade45_grids_500m":26,"activity_grade5_grids_500m":3,"resident_grade45_pop_500m":6712,"resident_grade5_pop_500m":1585,"core_judgment":"기후노출도와 활동·거주 취약도가 비교적 고르게 높아 지표 간 균형이 좋은 후보지임.","site_checks":"보행 접근성, 보호자 대기동선, 주변 쉼터 중복 여부 확인","note":"기후노출도와 활동·거주 취약도가 비교적 고르게 높아 지표 간 균형이 좋은 후보지임.","detail":"보행 접근성, 보호자 대기동선, 주변 쉼터 중복 여부 확인","source":"yuseong_smart_multi_shelter_candidate_analysis(4).xlsx"},"geometry":{"type":"Polygon","coordinates":[[[127.31734,36.300684],[127.318454,36.300686],[127.318456,36.299784],[127.317342,36.299782],[127.31734,36.300684]]]}},{"type":"Feature","properties":{"policy_type":"스마트복합쉼터","rank":10,"name":"흥도어린이공원","dong":"원신흥동","grid_id":"다바856151","grid_ids":["다바856151"],"score":57.124541,"review_group":"2차 검토","climate_exposure":81.621886,"activity_score":57.124541,"activity_percentile":72.239378,"activity_grade":3,"resident_population":64,"resi_score":55.468884,"resi_percentile":64.856056,"resi_grade":4,"population_500m":6054,"activity_percentile_500m":78.60504735384615,"activity_grade45_grids_500m":38,"activity_grade5_grids_500m":20,"resident_grade45_pop_500m":3902,"resident_grade5_pop_500m":2290,"core_judgment":"공원 격자 자체는 중간 수준이나 주변 생활권의 활동 취약도와 거주 취약인구가 높아 보완 후보로 검토할 수 있음.","site_checks":"주변 공동주택·보행축 이용량, 공원 경계부 접근성 확인","note":"공원 격자 자체는 중간 수준이나 주변 생활권의 활동 취약도와 거주 취약인구가 높아 보완 후보로 검토할 수 있음.","detail":"주변 공동주택·보행축 이용량, 공원 경계부 접근성 확인","source":"yuseong_smart_multi_shelter_candidate_analysis(4).xlsx"},"geometry":{"type":"Polygon","coordinates":[[[127.339547,36.334073],[127.340661,36.334075],[127.340663,36.333173],[127.339549,36.333172],[127.339547,36.334073]]]}},{"type":"Feature","properties":{"policy_type":"스마트복합쉼터","rank":11,"name":"숯골어린이공원","dong":"신성동","grid_id":"다바866215","grid_ids":["다바866215"],"score":58.192115,"review_group":"2차 검토","climate_exposure":80.591429,"activity_score":58.192115,"activity_percentile":76.988606,"activity_grade":3,"resident_population":255,"resi_score":57.48797,"resi_percentile":73.166757,"resi_grade":4,"population_500m":4241,"activity_percentile_500m":72.27771266153846,"activity_grade45_grids_500m":24,"activity_grade5_grids_500m":9,"resident_grade45_pop_500m":2987,"resident_grade5_pop_500m":178,"core_judgment":"500m 내 활동 취약지역과 거주 취약인구가 확인되나, 상위 후보보다 직접 격자 활동 취약도가 낮아 2차 검토가 적절함.","site_checks":"주말·평일 이용량, 실제 그늘 수준, 공원 내 평탄부 확인","note":"500m 내 활동 취약지역과 거주 취약인구가 확인되나, 상위 후보보다 직접 격자 활동 취약도가 낮아 2차 검토가 적절함.","detail":"주말·평일 이용량, 실제 그늘 수준, 공원 내 평탄부 확인","source":"yuseong_smart_multi_shelter_candidate_analysis(4).xlsx"},"geometry":{"type":"Polygon","coordinates":[[[127.350579,36.391786],[127.351694,36.391787],[127.351696,36.390886],[127.350581,36.390884],[127.350579,36.391786]]]}},{"type":"Feature","properties":{"policy_type":"그늘막쉼터","rank":1,"name":"테크노벨리네거리","dong":"관평동","grid_id":"다바901254","score":75.56,"note":"유동인구와 보행 노출 위험도가 모두 유성구 최상위 1%에 해당 지표면온도와 체감온도도 높은 지역 사거리 내 유일한 그늘막 미설치 지점","detail":"PPT 기반 후보지 상세 설명","location":"관평동(관평동)","activity_score":75.56,"activity_percentile":99.9,"activity_grade":5,"mean_lst":41.01,"mean_lst_percentile":93.7,"max_lst":51.87,"max_lst_percentile":93.1,"mean_apparent_temp":34.35,"mean_apparent_temp_percentile":90.6,"activity_pop_12_17":733.0,"activity_pop_12_17_percentile":99.9,"total_pop_all_hours":1169.0,"total_pop_all_hours_percentile":99.9,"resi_score":55.15,"resi_percentile":63.2,"resi_grade":4,"resi_nonresidential":false,"feature_notes":["유동인구와 보행 노출 위험도가 모두 유성구 최상위 1%에 해당","지표면온도와 체감온도도 높은 지역","사거리 내 유일한 그늘막 미설치 지점"],"source":"그늘막쉼터 추가 설치 후보지(2).pptx"},"geometry":{"type":"MultiPolygon","coordinates":[[[[127.389557,36.426988],[127.390673,36.426989],[127.390674,36.426087],[127.389559,36.426086],[127.389557,36.426988]]]]}},{"type":"Feature","properties":{"policy_type":"그늘막쉼터","rank":2,"name":"테크노중앙로","dong":"관평동","grid_id":"다바903253","score":70.66,"note":"유동인구가 최상위 1% 수준 평균 지표면온도 역시 최상위 5%에 해당 기존 그늘막이 없어 신규 설치 필요","detail":"PPT 기반 후보지 상세 설명","location":"관평동(관평동)","activity_score":70.66,"activity_percentile":99.1,"activity_grade":5,"mean_lst":41.39,"mean_lst_percentile":95.2,"max_lst":52.41,"max_lst_percentile":94.8,"mean_apparent_temp":34.35,"mean_apparent_temp_percentile":90.6,"activity_pop_12_17":440.0,"activity_pop_12_17_percentile":99.7,"total_pop_all_hours":710.0,"total_pop_all_hours_percentile":99.5,"resi_score":60.42,"resi_percentile":82.6,"resi_grade":4,"resi_nonresidential":false,"feature_notes":["유동인구가 최상위 1% 수준","평균 지표면온도 역시 최상위 5%에 해당","기존 그늘막이 없어 신규 설치 필요"],"source":"그늘막쉼터 추가 설치 후보지(2).pptx"},"geometry":{"type":"MultiPolygon","coordinates":[[[[127.39179,36.426088],[127.392905,36.42609],[127.392907,36.425188],[127.391791,36.425187],[127.39179,36.426088]]]]}},{"type":"Feature","properties":{"policy_type":"그늘막쉼터","rank":3,"name":"과학공원네거리","dong":"신성동","grid_id":"다바892196","score":66.19,"note":"낮 시간대 활동인구와 전체 인구가 모두 최상위 1% 대전 도시철도 2호선 국립중앙과학관역 개통 시 그늘막 이용수요가 매우 클 것으로 판단 기존 시설이 존재하지만 실제 보행자 대기 위치를 기준으로 보호 범위를 보완할 필요","detail":"PPT 기반 후보지 상세 설명","location":"신성동(도룡동)","activity_score":66.19,"activity_percentile":94.3,"activity_grade":5,"mean_lst":40.71,"mean_lst_percentile":92.4,"max_lst":51.64,"max_lst_percentile":92.3,"mean_apparent_temp":34.35,"mean_apparent_temp_percentile":89.7,"activity_pop_12_17":475.0,"activity_pop_12_17_percentile":99.7,"total_pop_all_hours":535.0,"total_pop_all_hours_percentile":99.2,"resi_score":null,"resi_percentile":null,"resi_grade":null,"resi_nonresidential":true,"feature_notes":["낮 시간대 활동인구와 전체 인구가 모두 최상위 1%","대전 도시철도 2호선 국립중앙과학관역 개통 시 그늘막 이용수요가 매우 클 것으로 판단","기존 시설이 존재하지만 실제 보행자 대기 위치를 기준으로 보호 범위를 보완할 필요"],"source":"그늘막쉼터 추가 설치 후보지(2).pptx"},"geometry":{"type":"MultiPolygon","coordinates":[[[[127.379598,36.374689],[127.380713,36.374691],[127.380714,36.373789],[127.379599,36.373788],[127.379598,36.374689]]]]}},{"type":"Feature","properties":{"policy_type":"그늘막쉼터","rank":4,"name":"계룡로","dong":"원신흥동","grid_id":"다바860172","score":63.57,"note":"전 시간 총인구가 최상위 1%에 해당해 특정 시간대뿐 아니라 하루 전반의 이용수요가 매우 큼 기존 그늘막이 없어 신규 설치 필요","detail":"PPT 기반 후보지 상세 설명","location":"온천1동~원신흥동(봉명동)","activity_score":63.57,"activity_percentile":85.0,"activity_grade":5,"mean_lst":40.67,"mean_lst_percentile":92.2,"max_lst":51.26,"max_lst_percentile":90.4,"mean_apparent_temp":34.27,"mean_apparent_temp_percentile":82.8,"activity_pop_12_17":355.0,"activity_pop_12_17_percentile":99.5,"total_pop_all_hours":853.0,"total_pop_all_hours_percentile":99.7,"resi_score":null,"resi_percentile":null,"resi_grade":null,"resi_nonresidential":true,"feature_notes":["전 시간 총인구가 최상위 1%에 해당해 특정 시간대뿐 아니라 하루 전반의 이용수요가 매우 큼","기존 그늘막이 없어 신규 설치 필요"],"source":"그늘막쉼터 추가 설치 후보지(2).pptx"},"geometry":{"type":"MultiPolygon","coordinates":[[[[127.343966,36.353011],[127.345081,36.353013],[127.345083,36.352111],[127.343968,36.35211],[127.343966,36.353011]]]]}},{"type":"Feature","properties":{"policy_type":"그늘막쉼터","rank":5,"name":"유성대로","dong":"온천1동","grid_id":"다바848176","score":62.56,"note":"낮 시간대 활동인구가 최상위 1% 수준이고 최고 지표면온도도 최상위 5%에 해당 버스터미널, 버스정류장, 택시승강장이 함께 있어 보행자와 대중교통 이용자의 대기수요가 중첩됨 기존 그늘막이 없어 신규 설치 필요","detail":"PPT 기반 후보지 상세 설명","location":"온천1동(구암동)","activity_score":62.56,"activity_percentile":81.9,"activity_grade":4,"mean_lst":40.23,"mean_lst_percentile":89.6,"max_lst":52.28,"max_lst_percentile":94.5,"mean_apparent_temp":34.22,"mean_apparent_temp_percentile":77.6,"activity_pop_12_17":284.0,"activity_pop_12_17_percentile":99.2,"total_pop_all_hours":414.0,"total_pop_all_hours_percentile":98.7,"resi_score":null,"resi_percentile":null,"resi_grade":null,"resi_nonresidential":true,"feature_notes":["낮 시간대 활동인구가 최상위 1% 수준이고 최고 지표면온도도 최상위 5%에 해당","버스터미널, 버스정류장, 택시승강장이 함께 있어 보행자와 대중교통 이용자의 대기수요가 중첩됨","기존 그늘막이 없어 신규 설치 필요"],"source":"그늘막쉼터 추가 설치 후보지(2).pptx"},"geometry":{"type":"MultiPolygon","coordinates":[[[[127.330584,36.356599],[127.331699,36.356601],[127.331701,36.355699],[127.330586,36.355698],[127.330584,36.356599]]]]}},{"type":"Feature","properties":{"policy_type":"그늘막쉼터","rank":6,"name":"동서대로","dong":"진잠동","grid_id":"다바854149","score":68.39,"note":"보행 노출 위험도와 실제 최고 지표면온도가 모두 최상위 5% 수준 유동인구 매우 많음 서구 쪽 보행자 대기 공간에는 그늘막 있음 유성구 측 보호시설 확충 필요","detail":"PPT 기반 후보지 상세 설명","location":"원신흥동~진잠동(원신흥동~용계동)","activity_score":68.39,"activity_percentile":97.9,"activity_grade":5,"mean_lst":40.59,"mean_lst_percentile":91.7,"max_lst":52.68,"max_lst_percentile":95.3,"mean_apparent_temp":34.07,"mean_apparent_temp_percentile":62.7,"activity_pop_12_17":201.0,"activity_pop_12_17_percentile":98.6,"total_pop_all_hours":428.0,"total_pop_all_hours_percentile":98.8,"resi_score":null,"resi_percentile":null,"resi_grade":null,"resi_nonresidential":true,"feature_notes":["보행 노출 위험도와 실제 최고 지표면온도가 모두 최상위 5% 수준","유동인구 매우 많음","서구 쪽 보행자 대기 공간에는 그늘막 있음","유성구 측 보호시설 확충 필요"],"source":"그늘막쉼터 추가 설치 후보지(2).pptx"},"geometry":{"type":"MultiPolygon","coordinates":[[[[127.337322,36.332267],[127.338437,36.332268],[127.338437,36.332206],[127.33814,36.332207],[127.33814,36.332188],[127.33814,36.331953],[127.33814,36.331799],[127.33814,36.331758],[127.338139,36.331388],[127.338139,36.331367],[127.337324,36.331365],[127.337322,36.332267]]]]}},{"type":"Feature","properties":{"policy_type":"그늘막쉼터","rank":7,"name":"엑스포로123번길","dong":"신성동","grid_id":"다바903198","score":60.0,"note":"낮 시간대 활동인구가 최상위 1% 체감온도와 평균 지표면온도도 상위 10%에 해당 특히 취약계층 밀집형 취약지수도 매우 높아, 일반 보행자뿐 아니라 고령자 등 폭염 취약인구의 이동을 보호한다는 측면에서 수요와 형평성을 동시에 충족 기존 그늘막 1개, 신호가 있는 미설치 지점에 설치 가능","detail":"PPT 기반 후보지 상세 설명","location":"신성동(도룡동)","activity_score":60.0,"activity_percentile":68.9,"activity_grade":4,"mean_lst":40.74,"mean_lst_percentile":92.6,"max_lst":50.77,"max_lst_percentile":88.2,"mean_apparent_temp":34.38,"mean_apparent_temp_percentile":91.8,"activity_pop_12_17":239.0,"activity_pop_12_17_percentile":99.0,"total_pop_all_hours":270.0,"total_pop_all_hours_percentile":97.5,"resi_score":64.71,"resi_percentile":92.8,"resi_grade":5,"resi_nonresidential":false,"feature_notes":["낮 시간대 활동인구가 최상위 1%","체감온도와 평균 지표면온도도 상위 10%에 해당","특히 취약계층 밀집형 취약지수도 매우 높아, 일반 보행자뿐 아니라 고령자 등 폭염 취약인구의 이동을 보호한다는 측면에서 수요와 형평성을 동시에 충족","기존 그늘막 1개, 신호가 있는 미설치 지점에 설치 가능"],"source":"그늘막쉼터 추가 설치 후보지(2).pptx"},"geometry":{"type":"MultiPolygon","coordinates":[[[[127.391858,36.376504],[127.392973,36.376505],[127.392975,36.375604],[127.39186,36.375603],[127.391858,36.376504]]]]}},{"type":"Feature","properties":{"policy_type":"그늘막쉼터","rank":8,"name":"유성대로","dong":"온천2동","grid_id":"다바853182","score":63.68,"note":"온도 자체는 상대적으로 낮지만 유동인구가 상위 2% 이내 네 방향 보행자신호에 그늘막 0개 수요 중심의 신규 설치 필요","detail":"PPT 기반 후보지 상세 설명","location":"온천2동(장대동)","activity_score":63.68,"activity_percentile":85.5,"activity_grade":5,"mean_lst":39.34,"mean_lst_percentile":83.6,"max_lst":50.52,"max_lst_percentile":86.9,"mean_apparent_temp":34.25,"mean_apparent_temp_percentile":81.5,"activity_pop_12_17":195.0,"activity_pop_12_17_percentile":98.5,"total_pop_all_hours":420.0,"total_pop_all_hours_percentile":98.8,"resi_score":57.79,"resi_percentile":74.1,"resi_grade":4,"resi_nonresidential":false,"feature_notes":["온도 자체는 상대적으로 낮지만 유동인구가 상위 2% 이내","네 방향 보행자신호에 그늘막 0개","수요 중심의 신규 설치 필요"],"source":"그늘막쉼터 추가 설치 후보지(2).pptx"},"geometry":{"type":"MultiPolygon","coordinates":[[[[127.336146,36.362016],[127.337261,36.362018],[127.337262,36.361116],[127.336148,36.361115],[127.336146,36.362016]]]]}},{"type":"Feature","properties":{"policy_type":"그늘막쉼터","rank":9,"name":"노은네거리","dong":"노은1동","grid_id":"다바836188","score":62.43,"note":"최고 지표면온도가 최상위 5%이고 유동인구도 상위 2% 수준 기존 그늘막이 일부 설치돼 있지만 미설치 지점 보완 필요 교통섬 또는 외곽 보행공간에 설치 가능 교통섬 유효면적 및 운전자 시야 확인 필요","detail":"PPT 기반 후보지 상세 설명","location":"노은1동(노은동)","activity_score":62.43,"activity_percentile":81.4,"activity_grade":4,"mean_lst":40.88,"mean_lst_percentile":93.1,"max_lst":52.81,"max_lst_percentile":95.6,"mean_apparent_temp":33.89,"mean_apparent_temp_percentile":47.6,"activity_pop_12_17":171.0,"activity_pop_12_17_percentile":98.2,"total_pop_all_hours":307.0,"total_pop_all_hours_percentile":97.9,"resi_score":null,"resi_percentile":null,"resi_grade":null,"resi_nonresidential":true,"feature_notes":["최고 지표면온도가 최상위 5%이고 유동인구도 상위 2% 수준","기존 그늘막이 일부 설치돼 있지만 미설치 지점 보완 필요","교통섬 또는 외곽 보행공간에 설치 가능","교통섬 유효면적 및 운전자 시야 확인 필요"],"source":"그늘막쉼터 추가 설치 후보지(2).pptx"},"geometry":{"type":"MultiPolygon","coordinates":[[[[127.317184,36.367398],[127.318299,36.3674],[127.318301,36.366498],[127.317186,36.366496],[127.317184,36.367398]]]]}},{"type":"Feature","properties":{"policy_type":"그늘막쉼터","rank":10,"name":"유성고네거리","dong":"온천1동","grid_id":"다바846172","score":65.03,"note":"평균 및 최고 지표면온도 모두 유성구 최상위권 유동인구도 상위 4% 이내 사거리 내 그늘막 0개 교통섬을 활용한 폭염 대피공간 조성 가능 교통섬 유효면적 및 운전자 시야 확인 필요","detail":"PPT 기반 후보지 상세 설명","location":"온천1동(구암동)","activity_score":65.03,"activity_percentile":90.4,"activity_grade":5,"mean_lst":41.1,"mean_lst_percentile":94.1,"max_lst":53.0,"max_lst_percentile":95.9,"mean_apparent_temp":34.0,"mean_apparent_temp_percentile":57.0,"activity_pop_12_17":139.0,"activity_pop_12_17_percentile":97.7,"total_pop_all_hours":202.0,"total_pop_all_hours_percentile":96.1,"resi_score":null,"resi_percentile":null,"resi_grade":null,"resi_nonresidential":true,"feature_notes":["평균 및 최고 지표면온도 모두 유성구 최상위권","유동인구도 상위 4% 이내","사거리 내 그늘막 0개","교통섬을 활용한 폭염 대피공간 조성 가능","교통섬 유효면적 및 운전자 시야 확인 필요"],"source":"그늘막쉼터 추가 설치 후보지(2).pptx"},"geometry":{"type":"MultiPolygon","coordinates":[[[[127.328363,36.35299],[127.329478,36.352991],[127.32948,36.35209],[127.328365,36.352088],[127.328363,36.35299]]]]}},{"type":"Feature","properties":{"policy_type":"무차양 버스정류장","rank":1.0,"name":"한빛아파트","dong":"궁동","grid_id":"다바868183","score":93.46000000000001,"note":"월평균 이용량 76,419명","detail":"거주 5등급(매우 높음) · 활동 5등급(매우 높음)","bus_usage_mean":76419.0,"bus_usage_grade":5,"resi_score":62.75,"resi_percentile":89.0,"resi_grade":"5등급(매우 높음)","activity_score":71.48,"activity_percentile":99.4,"activity_grade":"5등급(매우 높음)","stop_name":"한빛아파트","boarding_mean":463,"alighting_mean":75956,"transfer_mean":144,"bus_detail_source":"버스정류장 개선 후보지.pptx"},"geometry":{"type":"Point","coordinates":[127.35318,36.36223]}},{"type":"Feature","properties":{"policy_type":"무차양 버스정류장","rank":2.0,"name":"흥도초등학교","dong":"원신흥동","grid_id":"다바854151","score":91.53,"note":"월평균 이용량 51,007명","detail":"거주 5등급(매우 높음) · 활동 5등급(매우 높음)","bus_usage_mean":51006.67,"bus_usage_grade":5,"resi_score":61.62,"resi_percentile":86.3,"resi_grade":"5등급(매우 높음)","activity_score":67.4,"activity_percentile":96.6,"activity_grade":"5등급(매우 높음)","stop_name":"흥도초등학교","boarding_mean":7741,"alighting_mean":43266,"transfer_mean":558,"bus_detail_source":"버스정류장 개선 후보지.pptx"},"geometry":{"type":"Point","coordinates":[127.3381,36.333828]}},{"type":"Feature","properties":{"policy_type":"무차양 버스정류장","rank":3.0,"name":"유성시장","dong":"장대동","grid_id":"다바853179","score":89.3,"note":"월평균 이용량 41,141명","detail":"거주 4등급(높음) · 활동 5등급(매우 높음)","bus_usage_mean":41141.0,"bus_usage_grade":5,"resi_score":61.29,"resi_percentile":85.4,"resi_grade":"4등급(높음)","activity_score":65.44,"activity_percentile":91.7,"activity_grade":"5등급(매우 높음)","stop_name":"유성시장","boarding_mean":21579,"alighting_mean":19562,"transfer_mean":3583,"bus_detail_source":"버스정류장 개선 후보지.pptx"},"geometry":{"type":"Point","coordinates":[127.33625,36.358776]}},{"type":"Feature","properties":{"policy_type":"무차양 버스정류장","rank":4.0,"name":"봉명네거리","dong":"봉명동","grid_id":"다바851176","score":87.95,"note":"월평균 이용량 167,915명","detail":"거주 5등급(매우 높음) · 활동 4등급(높음)","bus_usage_mean":167915.33,"bus_usage_grade":5,"resi_score":63.64,"resi_percentile":90.9,"resi_grade":"5등급(매우 높음)","activity_score":63.3,"activity_percentile":84.2,"activity_grade":"4등급(높음)","stop_name":"봉명네거리","boarding_mean":69839,"alighting_mean":98076,"transfer_mean":27788,"bus_detail_source":"버스정류장 개선 후보지.pptx"},"geometry":{"type":"Point","coordinates":[127.3346,36.355713]}},{"type":"Feature","properties":{"policy_type":"무차양 버스정류장","rank":5.0,"name":"충남대학교입구","dong":"궁동","grid_id":"다바861182","score":78.02000000000001,"note":"월평균 이용량 24,806명","detail":"거주 4등급(높음) · 활동 5등급(매우 높음)","bus_usage_mean":24806.0,"bus_usage_grade":4,"resi_score":54.85,"resi_percentile":61.8,"resi_grade":"4등급(높음)","activity_score":67.2,"activity_percentile":96.2,"activity_grade":"5등급(매우 높음)","stop_name":"충남대학교입구","boarding_mean":19654,"alighting_mean":5152,"transfer_mean":4120,"bus_detail_source":"버스정류장 개선 후보지.pptx"},"geometry":{"type":"Point","coordinates":[127.34603,36.361355]}},{"type":"Feature","properties":{"policy_type":"무차양 버스정류장","rank":6.0,"name":"송강마을아파트","dong":"송강동","grid_id":"다바897266","score":76.00999999999999,"note":"월평균 이용량 59,232명","detail":"거주 5등급(매우 높음) · 활동 3등급(보통)","bus_usage_mean":59232.5,"bus_usage_grade":5,"resi_score":67.14,"resi_percentile":96.3,"resi_grade":"5등급(매우 높음)","activity_score":56.68,"activity_percentile":50.3,"activity_grade":"3등급(보통)","stop_name":"송강마을아파트","boarding_mean":null,"alighting_mean":null,"transfer_mean":null,"bus_detail_source":null},"geometry":{"type":"Point","coordinates":[127.38602,36.4376]}},{"type":"Feature","properties":{"policy_type":"무차양 버스정류장","rank":7.0,"name":"구암동","dong":"구암동","grid_id":"다바850173","score":74.22999999999999,"note":"월평균 이용량 3,717명","detail":"거주 5등급(매우 높음) · 활동 5등급(매우 높음)","bus_usage_mean":3716.67,"bus_usage_grade":2,"resi_score":68.4,"resi_percentile":97.3,"resi_grade":"5등급(매우 높음)","activity_score":64.95,"activity_percentile":90.1,"activity_grade":"5등급(매우 높음)","stop_name":"구암동","boarding_mean":null,"alighting_mean":null,"transfer_mean":null,"bus_detail_source":null},"geometry":{"type":"Point","coordinates":[127.33288,36.3534]}},{"type":"Feature","properties":{"policy_type":"무차양 버스정류장","rank":8.0,"name":"청벽산공원네거리","dong":"탑립동","grid_id":"다바915239","score":73.99,"note":"월평균 이용량 2,336명","detail":"거주 5등급(매우 높음) · 활동 5등급(매우 높음)","bus_usage_mean":2336.0,"bus_usage_grade":2,"resi_score":63.04,"resi_percentile":90.1,"resi_grade":"5등급(매우 높음)","activity_score":66.38,"activity_percentile":94.9,"activity_grade":"5등급(매우 높음)","stop_name":"청벽산공원네거리","boarding_mean":null,"alighting_mean":null,"transfer_mean":null,"bus_detail_source":null},"geometry":{"type":"Point","coordinates":[127.40592,36.41277]}},{"type":"Feature","properties":{"policy_type":"무차양 버스정류장","rank":9.0,"name":"구암동","dong":"구암동","grid_id":"다바849173","score":71.38000000000001,"note":"월평균 이용량 4,935명","detail":"거주 5등급(매우 높음) · 활동 5등급(매우 높음)","bus_usage_mean":4935.33,"bus_usage_grade":2,"resi_score":63.67,"resi_percentile":91.0,"resi_grade":"5등급(매우 높음)","activity_score":64.23,"activity_percentile":87.7,"activity_grade":"5등급(매우 높음)","stop_name":"구암동","boarding_mean":null,"alighting_mean":null,"transfer_mean":null,"bus_detail_source":null},"geometry":{"type":"Point","coordinates":[127.33268,36.35337]}},{"type":"Feature","properties":{"policy_type":"무차양 버스정류장","rank":10.0,"name":"봉명동 문화원로","dong":null,"grid_id":"다바863179","score":70.85000000000001,"note":"월평균 이용량 6,705명","detail":"거주 4등급(높음) · 활동 4등급(높음)","bus_usage_mean":6705.0,"bus_usage_grade":3,"resi_score":59.74,"resi_percentile":80.3,"resi_grade":"4등급(높음)","activity_score":61.97,"activity_percentile":79.4,"activity_grade":"4등급(높음)","stop_name":"봉명동 문화원로","boarding_mean":2466,"alighting_mean":4239,"transfer_mean":121,"bus_detail_source":"버스정류장 개선 후보지.pptx"},"geometry":{"type":"Point","coordinates":[127.347916,36.358715]}},{"type":"Feature","properties":{"policy_type":"무차양 버스정류장","rank":11.0,"name":"진잠향교","dong":"교촌동","grid_id":"다바835117","score":70.84,"note":"월평균 이용량 14,591명","detail":"거주 4등급(높음) · 활동 5등급(매우 높음)","bus_usage_mean":14591.0,"bus_usage_grade":3,"resi_score":57.27,"resi_percentile":72.0,"resi_grade":"4등급(높음)","activity_score":63.69,"activity_percentile":85.6,"activity_grade":"5등급(매우 높음)","stop_name":"진잠향교","boarding_mean":10095,"alighting_mean":4496,"transfer_mean":235,"bus_detail_source":"버스정류장 개선 후보지.pptx"},"geometry":{"type":"Point","coordinates":[127.31658,36.30332]}},{"type":"Feature","properties":{"policy_type":"무차양 버스정류장","rank":12.0,"name":"봉명동","dong":"봉명동","grid_id":"다바855170","score":70.08,"note":"월평균 이용량 8,199명","detail":"거주 5등급(매우 높음) · 활동 4등급(높음)","bus_usage_mean":8199.33,"bus_usage_grade":3,"resi_score":65.37,"resi_percentile":94.0,"resi_grade":"5등급(매우 높음)","activity_score":59.69,"activity_percentile":67.2,"activity_grade":"4등급(높음)","stop_name":"봉명동","boarding_mean":2579,"alighting_mean":5620,"transfer_mean":175,"bus_detail_source":"버스정류장 개선 후보지.pptx"},"geometry":{"type":"Point","coordinates":[127.33926,36.35035]}},{"type":"Feature","properties":{"policy_type":"무차양 버스정류장","rank":13.0,"name":"봉명동 문화원로","dong":null,"grid_id":"다바864179","score":69.86,"note":"월평균 이용량 7,919명","detail":"거주 4등급(높음) · 활동 4등급(높음)","bus_usage_mean":7919.0,"bus_usage_grade":3,"resi_score":60.03,"resi_percentile":81.4,"resi_grade":"4등급(높음)","activity_score":61.26,"activity_percentile":76.1,"activity_grade":"4등급(높음)","stop_name":"봉명동 문화원로","boarding_mean":4640,"alighting_mean":3279,"transfer_mean":160,"bus_detail_source":"버스정류장 개선 후보지.pptx"},"geometry":{"type":"Point","coordinates":[127.348976,36.358696]}},{"type":"Feature","properties":{"policy_type":"무차양 버스정류장","rank":14.0,"name":"탄동농협","dong":"신성동","grid_id":"다바865215","score":69.39,"note":"월평균 이용량 11,272명","detail":"거주 4등급(높음) · 활동 5등급(매우 높음)","bus_usage_mean":11272.33,"bus_usage_grade":3,"resi_score":55.72,"resi_percentile":66.1,"resi_grade":"4등급(높음)","activity_score":63.87,"activity_percentile":86.4,"activity_grade":"5등급(매우 높음)","stop_name":"탄동농협","boarding_mean":7927,"alighting_mean":3345,"transfer_mean":127,"bus_detail_source":"버스정류장 개선 후보지.pptx"},"geometry":{"type":"Point","coordinates":[127.34964,36.390903]}},{"type":"Feature","properties":{"policy_type":"무차양 버스정류장","rank":15.0,"name":"천양원","dong":null,"grid_id":"다바842180","score":68.31,"note":"월평균 이용량 13,929명","detail":"거주 4등급(높음) · 활동 5등급(매우 높음)","bus_usage_mean":13929.33,"bus_usage_grade":3,"resi_score":55.06,"resi_percentile":62.9,"resi_grade":"4등급(높음)","activity_score":63.84,"activity_percentile":86.1,"activity_grade":"5등급(매우 높음)","stop_name":"천양원","boarding_mean":3063,"alighting_mean":10867,"transfer_mean":1426,"bus_detail_source":"버스정류장 개선 후보지.pptx"},"geometry":{"type":"Point","coordinates":[127.32464,36.359573]}},{"type":"Feature","properties":{"policy_type":"무차양 버스정류장","rank":16.0,"name":"탄동농협","dong":"신성동","grid_id":"다바865214","score":67.6,"note":"월평균 이용량 12,781명","detail":"거주 4등급(높음) · 활동 5등급(매우 높음)","bus_usage_mean":12780.67,"bus_usage_grade":3,"resi_score":54.83,"resi_percentile":61.6,"resi_grade":"4등급(높음)","activity_score":63.64,"activity_percentile":85.3,"activity_grade":"5등급(매우 높음)","stop_name":"탄동농협","boarding_mean":null,"alighting_mean":null,"transfer_mean":null,"bus_detail_source":null},"geometry":{"type":"Point","coordinates":[127.34977,36.390785]}},{"type":"Feature","properties":{"policy_type":"무차양 버스정류장","rank":17.0,"name":"송강전통시장","dong":"송강동","grid_id":"다바898264","score":66.88,"note":"월평균 이용량 58,032명","detail":"거주 nan · 활동 5등급(매우 높음)","bus_usage_mean":17734.5,"bus_usage_grade":4,"resi_score":null,"resi_percentile":0.0,"resi_grade":null,"activity_score":72.11,"activity_percentile":99.7,"activity_grade":"5등급(매우 높음)","stop_name":"송강전통시장","boarding_mean":null,"alighting_mean":null,"transfer_mean":null,"bus_detail_source":null},"geometry":{"type":"Point","coordinates":[127.38708,36.43543]}},{"type":"Feature","properties":{"policy_type":"무차양 버스정류장","rank":18.0,"name":"애경연구원","dong":"자운동","grid_id":"다바866216","score":66.15,"note":"월평균 이용량 9,803명","detail":"거주 3등급(보통) · 활동 5등급(매우 높음)","bus_usage_mean":8724.67,"bus_usage_grade":3,"resi_score":51.12,"resi_percentile":45.3,"resi_grade":"3등급(보통)","activity_score":66.04,"activity_percentile":93.9,"activity_grade":"5등급(매우 높음)","stop_name":"애경연구원","boarding_mean":null,"alighting_mean":null,"transfer_mean":null,"bus_detail_source":null},"geometry":{"type":"Point","coordinates":[127.350945,36.392185]}},{"type":"Feature","properties":{"policy_type":"무차양 버스정류장","rank":19.0,"name":"애경연구원","dong":"자운동","grid_id":"다바866216","score":66.15,"note":"월평균 이용량 8,725명","detail":"거주 3등급(보통) · 활동 5등급(매우 높음)","bus_usage_mean":8724.67,"bus_usage_grade":3,"resi_score":51.12,"resi_percentile":45.3,"resi_grade":"3등급(보통)","activity_score":66.04,"activity_percentile":93.9,"activity_grade":"5등급(매우 높음)","stop_name":"애경연구원","boarding_mean":null,"alighting_mean":null,"transfer_mean":null,"bus_detail_source":null},"geometry":{"type":"Point","coordinates":[127.35103,36.39207]}},{"type":"Feature","properties":{"policy_type":"무차양 버스정류장","rank":20.0,"name":"충남대학교","dong":"궁동","grid_id":"다바859183","score":65.83,"note":"월평균 이용량 30,128명","detail":"거주 4등급(높음) · 활동 4등급(높음)","bus_usage_mean":30128.5,"bus_usage_grade":4,"resi_score":54.03,"resi_percentile":57.7,"resi_grade":"4등급(높음)","activity_score":59.99,"activity_percentile":68.8,"activity_grade":"4등급(높음)","stop_name":"충남대학교","boarding_mean":2076,"alighting_mean":28053,"transfer_mean":409,"bus_detail_source":"버스정류장 개선 후보지.pptx"},"geometry":{"type":"Point","coordinates":[127.34312,36.362354]}},{"type":"Feature","properties":{"policy_type":"무차양 버스정류장","rank":21.0,"name":"복용동","dong":"복용동","grid_id":"다바835157","score":65.68,"note":"월평균 이용량 10,858명","detail":"거주 3등급(보통) · 활동 5등급(매우 높음)","bus_usage_mean":10812.5,"bus_usage_grade":3,"resi_score":52.6,"resi_percentile":51.2,"resi_grade":"3등급(보통)","activity_score":64.44,"activity_percentile":88.3,"activity_grade":"5등급(매우 높음)","stop_name":"복용동","boarding_mean":null,"alighting_mean":null,"transfer_mean":null,"bus_detail_source":null},"geometry":{"type":"Point","coordinates":[127.31709,36.339138]}},{"type":"Feature","properties":{"policy_type":"무차양 버스정류장","rank":22.0,"name":"복용동","dong":"복용동","grid_id":"다바835157","score":65.68,"note":"월평균 이용량 10,812명","detail":"거주 3등급(보통) · 활동 5등급(매우 높음)","bus_usage_mean":10812.5,"bus_usage_grade":3,"resi_score":52.6,"resi_percentile":51.2,"resi_grade":"3등급(보통)","activity_score":64.44,"activity_percentile":88.3,"activity_grade":"5등급(매우 높음)","stop_name":"복용동","boarding_mean":null,"alighting_mean":null,"transfer_mean":null,"bus_detail_source":null},"geometry":{"type":"Point","coordinates":[127.31691,36.339214]}},{"type":"Feature","properties":{"policy_type":"무차양 버스정류장","rank":23.0,"name":"학하동","dong":"학하동","grid_id":"다바833156","score":65.46000000000001,"note":"월평균 이용량 3,529명","detail":"거주 4등급(높음) · 활동 5등급(매우 높음)","bus_usage_mean":3529.0,"bus_usage_grade":2,"resi_score":54.94,"resi_percentile":62.2,"resi_grade":"4등급(높음)","activity_score":66.26,"activity_percentile":94.5,"activity_grade":"5등급(매우 높음)","stop_name":"학하동","boarding_mean":null,"alighting_mean":null,"transfer_mean":null,"bus_detail_source":null},"geometry":{"type":"Point","coordinates":[127.31496,36.337673]}},{"type":"Feature","properties":{"policy_type":"무차양 버스정류장","rank":24.0,"name":"유성시장","dong":"장대동","grid_id":"다바851177","score":64.99000000000001,"note":"월평균 이용량 606명","detail":"거주 5등급(매우 높음) · 활동 5등급(매우 높음)","bus_usage_mean":486.0,"bus_usage_grade":1,"resi_score":62.85,"resi_percentile":89.3,"resi_grade":"5등급(매우 높음)","activity_score":64.31,"activity_percentile":88.0,"activity_grade":"5등급(매우 높음)","stop_name":"유성시장","boarding_mean":null,"alighting_mean":null,"transfer_mean":null,"bus_detail_source":null},"geometry":{"type":"Point","coordinates":[127.33444,36.35735]}},{"type":"Feature","properties":{"policy_type":"무차양 버스정류장","rank":25.0,"name":"유성시장","dong":"장대동","grid_id":"다바851177","score":64.99000000000001,"note":"월평균 이용량 486명","detail":"거주 5등급(매우 높음) · 활동 5등급(매우 높음)","bus_usage_mean":486.0,"bus_usage_grade":1,"resi_score":62.85,"resi_percentile":89.3,"resi_grade":"5등급(매우 높음)","activity_score":64.31,"activity_percentile":88.0,"activity_grade":"5등급(매우 높음)","stop_name":"유성시장","boarding_mean":null,"alighting_mean":null,"transfer_mean":null,"bus_detail_source":null},"geometry":{"type":"Point","coordinates":[127.33475,36.357235]}},{"type":"Feature","properties":{"policy_type":"무차양 버스정류장","rank":26.0,"name":"송강전통시장","dong":"송강동","grid_id":"다바898264","score":60.88,"note":"월평균 이용량 17,734명","detail":"거주 nan · 활동 5등급(매우 높음)","bus_usage_mean":17734.5,"bus_usage_grade":4,"resi_score":null,"resi_percentile":0.0,"resi_grade":null,"activity_score":72.11,"activity_percentile":99.7,"activity_grade":"5등급(매우 높음)","stop_name":"송강전통시장","boarding_mean":null,"alighting_mean":null,"transfer_mean":null,"bus_detail_source":null},"geometry":{"type":"Point","coordinates":[127.38718,36.435654]}},{"type":"Feature","properties":{"policy_type":"무차양 버스정류장","rank":27.0,"name":"유성온천역","dong":"봉명동","grid_id":"다바855173","score":60.88,"note":"월평균 이용량 12,529명","detail":"거주 4등급(높음) · 활동 3등급(보통)","bus_usage_mean":12528.67,"bus_usage_grade":3,"resi_score":58.31,"resi_percentile":75.6,"resi_grade":"4등급(높음)","activity_score":58.01,"activity_percentile":58.0,"activity_grade":"3등급(보통)","stop_name":"유성온천역","boarding_mean":null,"alighting_mean":null,"transfer_mean":null,"bus_detail_source":null},"geometry":{"type":"Point","coordinates":[127.33895,36.353737]}},{"type":"Feature","properties":{"policy_type":"무차양 버스정류장","rank":28.0,"name":"충남대산학연","dong":"궁동","grid_id":"다바861186","score":59.28,"note":"월평균 이용량 27,186명","detail":"거주 nan · 활동 5등급(매우 높음)","bus_usage_mean":27186.33,"bus_usage_grade":4,"resi_score":null,"resi_percentile":0.0,"resi_grade":null,"activity_score":66.8,"activity_percentile":95.7,"activity_grade":"5등급(매우 높음)","stop_name":"충남대산학연","boarding_mean":null,"alighting_mean":null,"transfer_mean":null,"bus_detail_source":null},"geometry":{"type":"Point","coordinates":[127.34543,36.36533]}},{"type":"Feature","properties":{"policy_type":"무차양 버스정류장","rank":29.0,"name":"탑립1통","dong":"탑립동","grid_id":"다바906234","score":58.16,"note":"월평균 이용량 4,347명","detail":"거주 3등급(보통) · 활동 5등급(매우 높음)","bus_usage_mean":null,"bus_usage_grade":0,"resi_score":51.56,"resi_percentile":46.8,"resi_grade":"3등급(보통)","activity_score":64.25,"activity_percentile":87.8,"activity_grade":"5등급(매우 높음)","stop_name":"탑립1통","boarding_mean":null,"alighting_mean":null,"transfer_mean":null,"bus_detail_source":null},"geometry":{"type":"Point","coordinates":[127.39574,36.40883]}},{"type":"Feature","properties":{"policy_type":"무차양 버스정류장","rank":30.0,"name":"원자력안전기술원","dong":"구성동","grid_id":"다바880196","score":57.32,"note":"월평균 이용량 23,398명","detail":"거주 nan · 활동 5등급(매우 높음)","bus_usage_mean":23397.67,"bus_usage_grade":4,"resi_score":null,"resi_percentile":0.0,"resi_grade":null,"activity_score":65.21,"activity_percentile":90.8,"activity_grade":"5등급(매우 높음)","stop_name":"원자력안전기술원","boarding_mean":null,"alighting_mean":null,"transfer_mean":null,"bus_detail_source":null},"geometry":{"type":"Point","coordinates":[127.36696,36.374493]}},{"type":"Feature","properties":{"policy_type":"무차양 버스정류장","rank":31.0,"name":"원불교유성교당","dong":"구암동","grid_id":"다바849170","score":55.81,"note":"월평균 이용량 12,778명","detail":"거주 5등급(매우 높음) · 활동 2등급(낮음)","bus_usage_mean":12778.33,"bus_usage_grade":3,"resi_score":67.57,"resi_percentile":96.7,"resi_grade":"5등급(매우 높음)","activity_score":53.22,"activity_percentile":29.5,"activity_grade":"2등급(낮음)","stop_name":"원불교유성교당","boarding_mean":null,"alighting_mean":null,"transfer_mean":null,"bus_detail_source":null},"geometry":{"type":"Point","coordinates":[127.33176,36.35071]}},{"type":"Feature","properties":{"policy_type":"무차양 버스정류장","rank":32.0,"name":"싸이언스빌3가","dong":"원촌동","grid_id":"다바915208","score":55.64,"note":"월평균 이용량 17,593명","detail":"거주 nan · 활동 5등급(매우 높음)","bus_usage_mean":17593.0,"bus_usage_grade":4,"resi_score":null,"resi_percentile":0.0,"resi_grade":null,"activity_score":63.95,"activity_percentile":86.6,"activity_grade":"5등급(매우 높음)","stop_name":"싸이언스빌3가","boarding_mean":null,"alighting_mean":null,"transfer_mean":null,"bus_detail_source":null},"geometry":{"type":"Point","coordinates":[127.40534,36.384987]}},{"type":"Feature","properties":{"policy_type":"무차양 버스정류장","rank":33.0,"name":"한국과학기술원대강당","dong":null,"grid_id":"다바876194","score":54.92,"note":"월평균 이용량 6,621명","detail":"거주 nan · 활동 5등급(매우 높음)","bus_usage_mean":3272.67,"bus_usage_grade":2,"resi_score":null,"resi_percentile":0.0,"resi_grade":null,"activity_score":74.18,"activity_percentile":99.8,"activity_grade":"5등급(매우 높음)","stop_name":"한국과학기술원대강당","boarding_mean":null,"alighting_mean":null,"transfer_mean":null,"bus_detail_source":null},"geometry":{"type":"Point","coordinates":[127.362526,36.37245]}},{"type":"Feature","properties":{"policy_type":"무차양 버스정류장","rank":34.0,"name":"봉산동기점","dong":"봉산동","grid_id":"다바896278","score":54.16,"note":"월평균 이용량 6,190명","detail":"거주 nan · 활동 5등급(매우 높음)","bus_usage_mean":6190.0,"bus_usage_grade":3,"resi_score":null,"resi_percentile":0.0,"resi_grade":null,"activity_score":68.41,"activity_percentile":97.9,"activity_grade":"5등급(매우 높음)","stop_name":"봉산동기점","boarding_mean":null,"alighting_mean":null,"transfer_mean":null,"bus_detail_source":null},"geometry":{"type":"Point","coordinates":[127.384605,36.448254]}},{"type":"Feature","properties":{"policy_type":"무차양 버스정류장","rank":35.0,"name":"KT유성지사","dong":"장대동","grid_id":"다바851183","score":54.07000000000001,"note":"월평균 이용량 자료 없음","detail":"거주 4등급(높음) · 활동 4등급(높음)","bus_usage_mean":null,"bus_usage_grade":0,"resi_score":60.13,"resi_percentile":81.7,"resi_grade":"4등급(높음)","activity_score":60.81,"activity_percentile":73.9,"activity_grade":"4등급(높음)","stop_name":"KT유성지사","boarding_mean":null,"alighting_mean":null,"transfer_mean":null,"bus_detail_source":null},"geometry":{"type":"Point","coordinates":[127.334404,36.36287]}},{"type":"Feature","properties":{"policy_type":"무차양 버스정류장","rank":36.0,"name":"수천이들근린공원","dong":null,"grid_id":"다바867218","score":54.0,"note":"월평균 이용량 8,838명","detail":"거주 nan · 활동 5등급(매우 높음)","bus_usage_mean":8838.0,"bus_usage_grade":3,"resi_score":null,"resi_percentile":0.0,"resi_grade":null,"activity_score":68.02,"activity_percentile":97.5,"activity_grade":"5등급(매우 높음)","stop_name":"수천이들근린공원","boarding_mean":null,"alighting_mean":null,"transfer_mean":null,"bus_detail_source":null},"geometry":{"type":"Point","coordinates":[127.35274,36.3939]}},{"type":"Feature","properties":{"policy_type":"무차양 버스정류장","rank":37.0,"name":"대전도시과학고등학교","dong":"원내동","grid_id":"다바837109","score":53.96,"note":"월평균 이용량 5,664명","detail":"거주 3등급(보통) · 활동 4등급(높음)","bus_usage_mean":5663.5,"bus_usage_grade":3,"resi_score":50.95,"resi_percentile":44.4,"resi_grade":"3등급(보통)","activity_score":59.06,"activity_percentile":64.1,"activity_grade":"4등급(높음)","stop_name":"대전도시과학고등학교","boarding_mean":null,"alighting_mean":null,"transfer_mean":null,"bus_detail_source":null},"geometry":{"type":"Point","coordinates":[127.319496,36.296066]}},{"type":"Feature","properties":{"policy_type":"무차양 버스정류장","rank":38.0,"name":"럭키하나아파트","dong":"신성동","grid_id":"다바863209","score":53.33,"note":"월평균 이용량 10,725명","detail":"거주 3등급(보통) · 활동 4등급(높음)","bus_usage_mean":7109.33,"bus_usage_grade":3,"resi_score":48.37,"resi_percentile":34.3,"resi_grade":"3등급(보통)","activity_score":60.19,"activity_percentile":70.1,"activity_grade":"4등급(높음)","stop_name":"럭키하나아파트","boarding_mean":null,"alighting_mean":null,"transfer_mean":null,"bus_detail_source":null},"geometry":{"type":"Point","coordinates":[127.34803,36.38594]}},{"type":"Feature","properties":{"policy_type":"무차양 버스정류장","rank":39.0,"name":"럭키하나아파트","dong":"신성동","grid_id":"다바863209","score":53.33,"note":"월평균 이용량 7,109명","detail":"거주 3등급(보통) · 활동 4등급(높음)","bus_usage_mean":7109.33,"bus_usage_grade":3,"resi_score":48.37,"resi_percentile":34.3,"resi_grade":"3등급(보통)","activity_score":60.19,"activity_percentile":70.1,"activity_grade":"4등급(높음)","stop_name":"럭키하나아파트","boarding_mean":null,"alighting_mean":null,"transfer_mean":null,"bus_detail_source":null},"geometry":{"type":"Point","coordinates":[127.347855,36.385933]}},{"type":"Feature","properties":{"policy_type":"무차양 버스정류장","rank":40.0,"name":"학하초등학교","dong":"학하동","grid_id":"다바831152","score":52.96000000000001,"note":"월평균 이용량 15,549명","detail":"거주 nan · 활동 4등급(높음)","bus_usage_mean":15548.67,"bus_usage_grade":4,"resi_score":null,"resi_percentile":0.0,"resi_grade":null,"activity_score":62.07,"activity_percentile":79.9,"activity_grade":"4등급(높음)","stop_name":"학하초등학교","boarding_mean":null,"alighting_mean":null,"transfer_mean":null,"bus_detail_source":null},"geometry":{"type":"Point","coordinates":[127.312645,36.33476]}},{"type":"Feature","properties":{"policy_type":"무차양 버스정류장","rank":41.0,"name":"원불교유성교당","dong":"구암동","grid_id":"다바848170","score":51.49,"note":"월평균 이용량 10,614명","detail":"거주 4등급(높음) · 활동 2등급(낮음)","bus_usage_mean":10614.33,"bus_usage_grade":3,"resi_score":60.23,"resi_percentile":81.9,"resi_grade":"4등급(높음)","activity_score":53.25,"activity_percentile":29.8,"activity_grade":"2등급(낮음)","stop_name":"원불교유성교당","boarding_mean":null,"alighting_mean":null,"transfer_mean":null,"bus_detail_source":null},"geometry":{"type":"Point","coordinates":[127.33156,36.350704]}},{"type":"Feature","properties":{"policy_type":"무차양 버스정류장","rank":42.0,"name":"온천1동주민센터","dong":"봉명동","grid_id":"다바855172","score":51.21,"note":"월평균 이용량 4,328명","detail":"거주 5등급(매우 높음) · 활동 3등급(보통)","bus_usage_mean":4327.5,"bus_usage_grade":2,"resi_score":65.37,"resi_percentile":93.9,"resi_grade":"5등급(매우 높음)","activity_score":54.26,"activity_percentile":35.1,"activity_grade":"3등급(보통)","stop_name":"온천1동주민센터","boarding_mean":null,"alighting_mean":null,"transfer_mean":null,"bus_detail_source":null},"geometry":{"type":"Point","coordinates":[127.338425,36.35292]}},{"type":"Feature","properties":{"policy_type":"무차양 버스정류장","rank":43.0,"name":"더샵도안트위넌스","dong":null,"grid_id":"다바849146","score":50.05,"note":"월평균 이용량 자료 없음","detail":"거주 4등급(높음) · 활동 4등급(높음)","bus_usage_mean":null,"bus_usage_grade":0,"resi_score":58.63,"resi_percentile":76.3,"resi_grade":"4등급(높음)","activity_score":59.79,"activity_percentile":67.9,"activity_grade":"4등급(높음)","stop_name":"더샵도안트위넌스","boarding_mean":null,"alighting_mean":null,"transfer_mean":null,"bus_detail_source":null},"geometry":{"type":"Point","coordinates":[127.33262,36.3295]}},{"type":"Feature","properties":{"policy_type":"무차양 버스정류장","rank":44.0,"name":"탑립1통","dong":"탑립동","grid_id":"다바906234","score":49.16,"note":"월평균 이용량 자료 없음","detail":"거주 3등급(보통) · 활동 5등급(매우 높음)","bus_usage_mean":null,"bus_usage_grade":0,"resi_score":51.56,"resi_percentile":46.8,"resi_grade":"3등급(보통)","activity_score":64.25,"activity_percentile":87.8,"activity_grade":"5등급(매우 높음)","stop_name":"탑립1통","boarding_mean":null,"alighting_mean":null,"transfer_mean":null,"bus_detail_source":null},"geometry":{"type":"Point","coordinates":[127.39585,36.40894]}},{"type":"Feature","properties":{"policy_type":"무차양 버스정류장","rank":45.0,"name":"한국과학기술원대강당","dong":null,"grid_id":"다바876194","score":48.92,"note":"월평균 이용량 3,273명","detail":"거주 nan · 활동 5등급(매우 높음)","bus_usage_mean":3272.67,"bus_usage_grade":2,"resi_score":null,"resi_percentile":0.0,"resi_grade":null,"activity_score":74.18,"activity_percentile":99.8,"activity_grade":"5등급(매우 높음)","stop_name":"한국과학기술원대강당","boarding_mean":null,"alighting_mean":null,"transfer_mean":null,"bus_detail_source":null},"geometry":{"type":"Point","coordinates":[127.3625,36.37225]}},{"type":"Feature","properties":{"policy_type":"무차양 버스정류장","rank":46.0,"name":"한국과학기술원교수회관","dong":null,"grid_id":"다바878196","score":48.56,"note":"월평균 이용량 2,818명","detail":"거주 nan · 활동 5등급(매우 높음)","bus_usage_mean":1301.0,"bus_usage_grade":2,"resi_score":null,"resi_percentile":0.0,"resi_grade":null,"activity_score":70.16,"activity_percentile":98.9,"activity_grade":"5등급(매우 높음)","stop_name":"한국과학기술원교수회관","boarding_mean":null,"alighting_mean":null,"transfer_mean":null,"bus_detail_source":null},"geometry":{"type":"Point","coordinates":[127.36459,36.37415]}},{"type":"Feature","properties":{"policy_type":"무차양 버스정류장","rank":47.0,"name":"한국과학기술원교수회관","dong":null,"grid_id":"다바878196","score":48.56,"note":"월평균 이용량 1,301명","detail":"거주 nan · 활동 5등급(매우 높음)","bus_usage_mean":1301.0,"bus_usage_grade":2,"resi_score":null,"resi_percentile":0.0,"resi_grade":null,"activity_score":70.16,"activity_percentile":98.9,"activity_grade":"5등급(매우 높음)","stop_name":"한국과학기술원교수회관","boarding_mean":null,"alighting_mean":null,"transfer_mean":null,"bus_detail_source":null},"geometry":{"type":"Point","coordinates":[127.36454,36.374104]}},{"type":"Feature","properties":{"policy_type":"무차양 버스정류장","rank":48.0,"name":"아리랑보쌈앞","dong":"신성동","grid_id":"다바867218","score":48.0,"note":"월평균 이용량 2,462명","detail":"거주 nan · 활동 5등급(매우 높음)","bus_usage_mean":2461.67,"bus_usage_grade":2,"resi_score":null,"resi_percentile":0.0,"resi_grade":null,"activity_score":68.02,"activity_percentile":97.5,"activity_grade":"5등급(매우 높음)","stop_name":"아리랑보쌈앞","boarding_mean":null,"alighting_mean":null,"transfer_mean":null,"bus_detail_source":null},"geometry":{"type":"Point","coordinates":[127.35275,36.394287]}},{"type":"Feature","properties":{"policy_type":"무차양 버스정류장","rank":49.0,"name":"아리랑보쌈앞","dong":null,"grid_id":"다바868218","score":47.6,"note":"월평균 이용량 3,127명","detail":"거주 nan · 활동 5등급(매우 높음)","bus_usage_mean":3127.0,"bus_usage_grade":2,"resi_score":null,"resi_percentile":0.0,"resi_grade":null,"activity_score":67.37,"activity_percentile":96.5,"activity_grade":"5등급(매우 높음)","stop_name":"아리랑보쌈앞","boarding_mean":null,"alighting_mean":null,"transfer_mean":null,"bus_detail_source":null},"geometry":{"type":"Point","coordinates":[127.352941,36.39398]}},{"type":"Feature","properties":{"policy_type":"무차양 버스정류장","rank":50.0,"name":"자운근린공원","dong":null,"grid_id":"다바867220","score":47.36000000000001,"note":"월평균 이용량 2,927명","detail":"거주 nan · 활동 5등급(매우 높음)","bus_usage_mean":2927.0,"bus_usage_grade":2,"resi_score":null,"resi_percentile":0.0,"resi_grade":null,"activity_score":66.99,"activity_percentile":95.9,"activity_grade":"5등급(매우 높음)","stop_name":"자운근린공원","boarding_mean":null,"alighting_mean":null,"transfer_mean":null,"bus_detail_source":null},"geometry":{"type":"Point","coordinates":[127.35244,36.39553]}},{"type":"Feature","properties":{"policy_type":"무차양 버스정류장","rank":51.0,"name":"구즉동주민센터","dong":null,"grid_id":"다바896269","score":47.25,"note":"월평균 이용량 4,651명","detail":"거주 3등급(보통) · 활동 4등급(높음)","bus_usage_mean":2934.33,"bus_usage_grade":2,"resi_score":50.55,"resi_percentile":42.3,"resi_grade":"3등급(보통)","activity_score":59.03,"activity_percentile":63.9,"activity_grade":"4등급(높음)","stop_name":"구즉동주민센터","boarding_mean":null,"alighting_mean":null,"transfer_mean":null,"bus_detail_source":null},"geometry":{"type":"Point","coordinates":[127.384042,36.440246]}},{"type":"Feature","properties":{"policy_type":"무차양 버스정류장","rank":52.0,"name":"구즉동주민센터","dong":null,"grid_id":"다바896269","score":47.25,"note":"월평균 이용량 2,934명","detail":"거주 3등급(보통) · 활동 4등급(높음)","bus_usage_mean":2934.33,"bus_usage_grade":2,"resi_score":50.55,"resi_percentile":42.3,"resi_grade":"3등급(보통)","activity_score":59.03,"activity_percentile":63.9,"activity_grade":"4등급(높음)","stop_name":"구즉동주민센터","boarding_mean":null,"alighting_mean":null,"transfer_mean":null,"bus_detail_source":null},"geometry":{"type":"Point","coordinates":[127.384267,36.440202]}},{"type":"Feature","properties":{"policy_type":"무차양 버스정류장","rank":53.0,"name":"테크노밸리7단지","dong":"관평동","grid_id":"다바896252","score":46.57,"note":"월평균 이용량 4,721명","detail":"거주 2등급(낮음) · 활동 4등급(높음)","bus_usage_mean":3323.33,"bus_usage_grade":2,"resi_score":45.33,"resi_percentile":23.9,"resi_grade":"2등급(낮음)","activity_score":61.25,"activity_percentile":76.0,"activity_grade":"4등급(높음)","stop_name":"테크노밸리7단지","boarding_mean":null,"alighting_mean":null,"transfer_mean":null,"bus_detail_source":null},"geometry":{"type":"Point","coordinates":[127.38465,36.425167]}},{"type":"Feature","properties":{"policy_type":"무차양 버스정류장","rank":54.0,"name":"테크노밸리7단지","dong":"송강동","grid_id":"다바896252","score":46.57,"note":"월평균 이용량 3,323명","detail":"거주 2등급(낮음) · 활동 4등급(높음)","bus_usage_mean":3323.33,"bus_usage_grade":2,"resi_score":45.33,"resi_percentile":23.9,"resi_grade":"2등급(낮음)","activity_score":61.25,"activity_percentile":76.0,"activity_grade":"4등급(높음)","stop_name":"테크노밸리7단지","boarding_mean":null,"alighting_mean":null,"transfer_mean":null,"bus_detail_source":null},"geometry":{"type":"Point","coordinates":[127.38413,36.424995]}},{"type":"Feature","properties":{"policy_type":"무차양 버스정류장","rank":55.0,"name":"대전테크노파크","dong":null,"grid_id":"다바914248","score":45.64,"note":"월평균 이용량 1,732명","detail":"거주 nan · 활동 5등급(매우 높음)","bus_usage_mean":1731.67,"bus_usage_grade":2,"resi_score":null,"resi_percentile":0.0,"resi_grade":null,"activity_score":65.42,"activity_percentile":91.6,"activity_grade":"5등급(매우 높음)","stop_name":"대전테크노파크","boarding_mean":null,"alighting_mean":null,"transfer_mean":null,"bus_detail_source":null},"geometry":{"type":"Point","coordinates":[127.404338,36.420697]}},{"type":"Feature","properties":{"policy_type":"무차양 버스정류장","rank":56.0,"name":"한국과학기술원본관","dong":null,"grid_id":"다바875191","score":44.36000000000001,"note":"월평균 이용량 2,792명","detail":"거주 nan · 활동 5등급(매우 높음)","bus_usage_mean":2791.5,"bus_usage_grade":2,"resi_score":null,"resi_percentile":0.0,"resi_grade":null,"activity_score":64.47,"activity_percentile":88.4,"activity_grade":"5등급(매우 높음)","stop_name":"한국과학기술원본관","boarding_mean":null,"alighting_mean":null,"transfer_mean":null,"bus_detail_source":null},"geometry":{"type":"Point","coordinates":[127.360664,36.37007]}},{"type":"Feature","properties":{"policy_type":"무차양 버스정류장","rank":57.0,"name":"문지네거리","dong":"문지동","grid_id":"다바913214","score":44.28,"note":"월평균 이용량 1,778명","detail":"거주 nan · 활동 5등급(매우 높음)","bus_usage_mean":1777.67,"bus_usage_grade":2,"resi_score":null,"resi_percentile":0.0,"resi_grade":null,"activity_score":64.43,"activity_percentile":88.2,"activity_grade":"5등급(매우 높음)","stop_name":"문지네거리","boarding_mean":null,"alighting_mean":null,"transfer_mean":null,"bus_detail_source":null},"geometry":{"type":"Point","coordinates":[127.40303,36.390182]}},{"type":"Feature","properties":{"policy_type":"무차양 버스정류장","rank":58.0,"name":"구암8통","dong":"구암동","grid_id":"다바832179","score":44.23999999999999,"note":"월평균 이용량 5,975명","detail":"거주 nan · 활동 4등급(높음)","bus_usage_mean":5975.0,"bus_usage_grade":3,"resi_score":null,"resi_percentile":0.0,"resi_grade":null,"activity_score":60.66,"activity_percentile":73.1,"activity_grade":"4등급(높음)","stop_name":"구암8통","boarding_mean":null,"alighting_mean":null,"transfer_mean":null,"bus_detail_source":null},"geometry":{"type":"Point","coordinates":[127.313835,36.35921]}},{"type":"Feature","properties":{"policy_type":"무차양 버스정류장","rank":59.0,"name":"신성동주민센터","dong":"신성동","grid_id":"다바863212","score":43.74,"note":"월평균 이용량 8,377명","detail":"거주 3등급(보통) · 활동 3등급(보통)","bus_usage_mean":8377.0,"bus_usage_grade":3,"resi_score":47.72,"resi_percentile":31.8,"resi_grade":"3등급(보통)","activity_score":56.32,"activity_percentile":48.0,"activity_grade":"3등급(보통)","stop_name":"신성동주민센터","boarding_mean":null,"alighting_mean":null,"transfer_mean":null,"bus_detail_source":null},"geometry":{"type":"Point","coordinates":[127.348015,36.388996]}},{"type":"Feature","properties":{"policy_type":"무차양 버스정류장","rank":60.0,"name":"조은정밀","dong":null,"grid_id":"다바916243","score":43.68,"note":"월평균 이용량 2,459명","detail":"거주 nan · 활동 5등급(매우 높음)","bus_usage_mean":2458.67,"bus_usage_grade":2,"resi_score":null,"resi_percentile":0.0,"resi_grade":null,"activity_score":63.97,"activity_percentile":86.7,"activity_grade":"5등급(매우 높음)","stop_name":"조은정밀","boarding_mean":null,"alighting_mean":null,"transfer_mean":null,"bus_detail_source":null},"geometry":{"type":"Point","coordinates":[127.406817,36.416294]}},{"type":"Feature","properties":{"policy_type":"무차양 버스정류장","rank":61.0,"name":"진잠타운아파트","dong":"원내동","grid_id":"다바838111","score":42.48,"note":"월평균 이용량 9,357명","detail":"거주 nan · 활동 4등급(높음)","bus_usage_mean":9357.33,"bus_usage_grade":3,"resi_score":null,"resi_percentile":0.0,"resi_grade":null,"activity_score":59.99,"activity_percentile":68.7,"activity_grade":"4등급(높음)","stop_name":"진잠타운아파트","boarding_mean":null,"alighting_mean":null,"transfer_mean":null,"bus_detail_source":null},"geometry":{"type":"Point","coordinates":[127.32017,36.297318]}},{"type":"Feature","properties":{"policy_type":"무차양 버스정류장","rank":62.0,"name":"한국과학기술원북문","dong":null,"grid_id":"다바877197","score":42.24,"note":"월평균 이용량 1,153명","detail":"거주 nan · 활동 5등급(매우 높음)","bus_usage_mean":1152.67,"bus_usage_grade":1,"resi_score":null,"resi_percentile":0.0,"resi_grade":null,"activity_score":68.8,"activity_percentile":98.1,"activity_grade":"5등급(매우 높음)","stop_name":"한국과학기술원북문","boarding_mean":null,"alighting_mean":null,"transfer_mean":null,"bus_detail_source":null},"geometry":{"type":"Point","coordinates":[127.363884,36.3751]}},{"type":"Feature","properties":{"policy_type":"무차양 버스정류장","rank":63.0,"name":"국제과학3로","dong":null,"grid_id":"다바884307","score":41.04,"note":"월평균 이용량 295명","detail":"거주 nan · 활동 5등급(매우 높음)","bus_usage_mean":295.0,"bus_usage_grade":1,"resi_score":null,"resi_percentile":0.0,"resi_grade":null,"activity_score":66.45,"activity_percentile":95.1,"activity_grade":"5등급(매우 높음)","stop_name":"국제과학3로","boarding_mean":null,"alighting_mean":null,"transfer_mean":null,"bus_detail_source":null},"geometry":{"type":"Point","coordinates":[127.370964,36.47425]}},{"type":"Feature","properties":{"policy_type":"무차양 버스정류장","rank":64.0,"name":"신동","dong":"신동","grid_id":"다바881309","score":40.44,"note":"월평균 이용량 256명","detail":"거주 nan · 활동 5등급(매우 높음)","bus_usage_mean":255.67,"bus_usage_grade":1,"resi_score":null,"resi_percentile":0.0,"resi_grade":null,"activity_score":65.89,"activity_percentile":93.6,"activity_grade":"5등급(매우 높음)","stop_name":"신동","boarding_mean":null,"alighting_mean":null,"transfer_mean":null,"bus_detail_source":null},"geometry":{"type":"Point","coordinates":[127.36818,36.475838]}},{"type":"Feature","properties":{"policy_type":"무차양 버스정류장","rank":65.0,"name":"탑립육교","dong":"탑립동","grid_id":"다바905236","score":40.2,"note":"월평균 이용량 2,604명","detail":"거주 nan · 활동 4등급(높음)","bus_usage_mean":2603.5,"bus_usage_grade":2,"resi_score":null,"resi_percentile":0.0,"resi_grade":null,"activity_score":61.67,"activity_percentile":78.0,"activity_grade":"4등급(높음)","stop_name":"탑립육교","boarding_mean":null,"alighting_mean":null,"transfer_mean":null,"bus_detail_source":null},"geometry":{"type":"Point","coordinates":[127.39426,36.410706]}},{"type":"Feature","properties":{"policy_type":"무차양 버스정류장","rank":66.0,"name":"국제과학5로","dong":null,"grid_id":"다바886307","score":39.84,"note":"월평균 이용량 603명","detail":"거주 nan · 활동 5등급(매우 높음)","bus_usage_mean":603.33,"bus_usage_grade":1,"resi_score":null,"resi_percentile":0.0,"resi_grade":null,"activity_score":65.59,"activity_percentile":92.1,"activity_grade":"5등급(매우 높음)","stop_name":"국제과학5로","boarding_mean":null,"alighting_mean":null,"transfer_mean":null,"bus_detail_source":null},"geometry":{"type":"Point","coordinates":[127.37296,36.47424]}},{"type":"Feature","properties":{"policy_type":"무차양 버스정류장","rank":67.0,"name":"k-water인재개발원","dong":"전민동","grid_id":"다바908230","score":39.2,"note":"월평균 이용량 1,221명","detail":"거주 nan · 활동 5등급(매우 높음)","bus_usage_mean":1221.0,"bus_usage_grade":1,"resi_score":null,"resi_percentile":0.0,"resi_grade":null,"activity_score":65.05,"activity_percentile":90.5,"activity_grade":"5등급(매우 높음)","stop_name":"k-water인재개발원","boarding_mean":null,"alighting_mean":null,"transfer_mean":null,"bus_detail_source":null},"geometry":{"type":"Point","coordinates":[127.397545,36.405052]}},{"type":"Feature","properties":{"policy_type":"무차양 버스정류장","rank":68.0,"name":"LH연구원","dong":"전민동","grid_id":"다바908230","score":39.2,"note":"월평균 이용량 1,083명","detail":"거주 nan · 활동 5등급(매우 높음)","bus_usage_mean":1082.67,"bus_usage_grade":1,"resi_score":null,"resi_percentile":0.0,"resi_grade":null,"activity_score":65.05,"activity_percentile":90.5,"activity_grade":"5등급(매우 높음)","stop_name":"LH연구원","boarding_mean":null,"alighting_mean":null,"transfer_mean":null,"bus_detail_source":null},"geometry":{"type":"Point","coordinates":[127.397675,36.40469]}},{"type":"Feature","properties":{"policy_type":"무차양 버스정류장","rank":69.0,"name":"방현동","dong":"방현동","grid_id":"다바880231","score":38.96000000000001,"note":"월평균 이용량 1,735명","detail":"거주 nan · 활동 4등급(높음)","bus_usage_mean":1734.67,"bus_usage_grade":2,"resi_score":null,"resi_percentile":0.0,"resi_grade":null,"activity_score":61.0,"activity_percentile":74.9,"activity_grade":"4등급(높음)","stop_name":"방현동","boarding_mean":null,"alighting_mean":null,"transfer_mean":null,"bus_detail_source":null},"geometry":{"type":"Point","coordinates":[127.36723,36.405373]}},{"type":"Feature","properties":{"policy_type":"무차양 버스정류장","rank":70.0,"name":"탑립육교","dong":"탑립동","grid_id":"다바905237","score":38.48,"note":"월평균 이용량 3,282명","detail":"거주 nan · 활동 4등급(높음)","bus_usage_mean":3282.5,"bus_usage_grade":2,"resi_score":null,"resi_percentile":0.0,"resi_grade":null,"activity_score":60.77,"activity_percentile":73.7,"activity_grade":"4등급(높음)","stop_name":"탑립육교","boarding_mean":null,"alighting_mean":null,"transfer_mean":null,"bus_detail_source":null},"geometry":{"type":"Point","coordinates":[127.39411,36.410786]}},{"type":"Feature","properties":{"policy_type":"무차양 버스정류장","rank":71.0,"name":"용계동접수마을","dong":"용계동","grid_id":"다바848146","score":38.11000000000001,"note":"월평균 이용량 127명","detail":"거주 3등급(보통) · 활동 3등급(보통)","bus_usage_mean":125.0,"bus_usage_grade":1,"resi_score":50.46,"resi_percentile":42.1,"resi_grade":"3등급(보통)","activity_score":57.71,"activity_percentile":56.2,"activity_grade":"3등급(보통)","stop_name":"용계동접수마을","boarding_mean":null,"alighting_mean":null,"transfer_mean":null,"bus_detail_source":null},"geometry":{"type":"Point","coordinates":[127.33084,36.32932]}},{"type":"Feature","properties":{"policy_type":"무차양 버스정류장","rank":72.0,"name":"용계동접수마을","dong":"용계동","grid_id":"다바848146","score":38.11000000000001,"note":"월평균 이용량 125명","detail":"거주 3등급(보통) · 활동 3등급(보통)","bus_usage_mean":125.0,"bus_usage_grade":1,"resi_score":50.46,"resi_percentile":42.1,"resi_grade":"3등급(보통)","activity_score":57.71,"activity_percentile":56.2,"activity_grade":"3등급(보통)","stop_name":"용계동접수마을","boarding_mean":null,"alighting_mean":null,"transfer_mean":null,"bus_detail_source":null},"geometry":{"type":"Point","coordinates":[127.33091,36.329334]}},{"type":"Feature","properties":{"policy_type":"무차양 버스정류장","rank":73.0,"name":"한텍","dong":null,"grid_id":"다바911249","score":38.0,"note":"월평균 이용량 1,378명","detail":"거주 nan · 활동 4등급(높음)","bus_usage_mean":1178.33,"bus_usage_grade":1,"resi_score":null,"resi_percentile":0.0,"resi_grade":null,"activity_score":60.57,"activity_percentile":72.5,"activity_grade":"4등급(높음)","stop_name":"한텍","boarding_mean":null,"alighting_mean":null,"transfer_mean":null,"bus_detail_source":null},"geometry":{"type":"Point","coordinates":[127.401642,36.422018]}},{"type":"Feature","properties":{"policy_type":"무차양 버스정류장","rank":74.0,"name":"유성컨트리클럽","dong":"갑동","grid_id":"다바815181","score":37.52,"note":"월평균 이용량 3,422명","detail":"거주 nan · 활동 4등급(높음)","bus_usage_mean":3422.5,"bus_usage_grade":2,"resi_score":null,"resi_percentile":0.0,"resi_grade":null,"activity_score":60.35,"activity_percentile":71.3,"activity_grade":"4등급(높음)","stop_name":"유성컨트리클럽","boarding_mean":null,"alighting_mean":null,"transfer_mean":null,"bus_detail_source":null},"geometry":{"type":"Point","coordinates":[127.29419,36.360207]}},{"type":"Feature","properties":{"policy_type":"무차양 버스정류장","rank":75.0,"name":"국제과학21로","dong":null,"grid_id":"다바867275","score":37.23999999999999,"note":"월평균 이용량 1,593명","detail":"거주 nan · 활동 4등급(높음)","bus_usage_mean":1593.33,"bus_usage_grade":2,"resi_score":null,"resi_percentile":0.0,"resi_grade":null,"activity_score":60.26,"activity_percentile":70.6,"activity_grade":"4등급(높음)","stop_name":"국제과학21로","boarding_mean":null,"alighting_mean":null,"transfer_mean":null,"bus_detail_source":null},"geometry":{"type":"Point","coordinates":[127.35226,36.44581]}},{"type":"Feature","properties":{"policy_type":"무차양 버스정류장","rank":76.0,"name":"복용2통","dong":"복용동","grid_id":"다바837159","score":37.04000000000001,"note":"월평균 이용량 13,331명","detail":"거주 nan · 활동 3등급(보통)","bus_usage_mean":13331.0,"bus_usage_grade":3,"resi_score":null,"resi_percentile":0.0,"resi_grade":null,"activity_score":57.57,"activity_percentile":55.1,"activity_grade":"3등급(보통)","stop_name":"복용2통","boarding_mean":null,"alighting_mean":null,"transfer_mean":null,"bus_detail_source":null},"geometry":{"type":"Point","coordinates":[127.318634,36.34099]}},{"type":"Feature","properties":{"policy_type":"무차양 버스정류장","rank":77.0,"name":"신동2통","dong":"신동","grid_id":"다바886307","score":36.84,"note":"월평균 이용량 자료 없음","detail":"거주 nan · 활동 5등급(매우 높음)","bus_usage_mean":null,"bus_usage_grade":0,"resi_score":null,"resi_percentile":0.0,"resi_grade":null,"activity_score":65.59,"activity_percentile":92.1,"activity_grade":"5등급(매우 높음)","stop_name":"신동2통","boarding_mean":null,"alighting_mean":null,"transfer_mean":null,"bus_detail_source":null},"geometry":{"type":"Point","coordinates":[127.37276,36.47456]}},{"type":"Feature","properties":{"policy_type":"무차양 버스정류장","rank":78.0,"name":"신동2통","dong":"신동","grid_id":"다바886307","score":36.84,"note":"월평균 이용량 자료 없음","detail":"거주 nan · 활동 5등급(매우 높음)","bus_usage_mean":null,"bus_usage_grade":0,"resi_score":null,"resi_percentile":0.0,"resi_grade":null,"activity_score":65.59,"activity_percentile":92.1,"activity_grade":"5등급(매우 높음)","stop_name":"신동2통","boarding_mean":null,"alighting_mean":null,"transfer_mean":null,"bus_detail_source":null},"geometry":{"type":"Point","coordinates":[127.3728,36.47465]}},{"type":"Feature","properties":{"policy_type":"무차양 버스정류장","rank":79.0,"name":"원촌동솔로몬로파크","dong":"원촌동","grid_id":"다바914199","score":34.84,"note":"월평균 이용량 3,448명","detail":"거주 nan · 활동 4등급(높음)","bus_usage_mean":3448.0,"bus_usage_grade":2,"resi_score":null,"resi_percentile":0.0,"resi_grade":null,"activity_score":59.17,"activity_percentile":64.6,"activity_grade":"4등급(높음)","stop_name":"원촌동솔로몬로파크","boarding_mean":null,"alighting_mean":null,"transfer_mean":null,"bus_detail_source":null},"geometry":{"type":"Point","coordinates":[127.40477,36.377296]}},{"type":"Feature","properties":{"policy_type":"무차양 버스정류장","rank":80.0,"name":"신동","dong":"신동","grid_id":"다바883309","score":34.0,"note":"월평균 이용량 1,174명","detail":"거주 nan · 활동 4등급(높음)","bus_usage_mean":1174.33,"bus_usage_grade":1,"resi_score":null,"resi_percentile":0.0,"resi_grade":null,"activity_score":61.55,"activity_percentile":77.5,"activity_grade":"4등급(높음)","stop_name":"신동","boarding_mean":null,"alighting_mean":null,"transfer_mean":null,"bus_detail_source":null},"geometry":{"type":"Point","coordinates":[127.36955,36.4757]}},{"type":"Feature","properties":{"policy_type":"무차양 버스정류장","rank":81.0,"name":"한국과학기술원오리연못","dong":null,"grid_id":"다바876188","score":33.68000000000001,"note":"월평균 이용량 2,835명","detail":"거주 nan · 활동 4등급(높음)","bus_usage_mean":2835.0,"bus_usage_grade":2,"resi_score":null,"resi_percentile":0.0,"resi_grade":null,"activity_score":58.62,"activity_percentile":61.7,"activity_grade":"4등급(높음)","stop_name":"한국과학기술원오리연못","boarding_mean":null,"alighting_mean":null,"transfer_mean":null,"bus_detail_source":null},"geometry":{"type":"Point","coordinates":[127.36269,36.367283]}},{"type":"Feature","properties":{"policy_type":"무차양 버스정류장","rank":82.0,"name":"신성동주민센터","dong":"신성동","grid_id":"다바863213","score":33.65,"note":"월평균 이용량 6,684명","detail":"거주 2등급(낮음) · 활동 3등급(보통)","bus_usage_mean":6684.33,"bus_usage_grade":3,"resi_score":41.66,"resi_percentile":15.1,"resi_grade":"2등급(낮음)","activity_score":54.31,"activity_percentile":35.3,"activity_grade":"3등급(보통)","stop_name":"신성동주민센터","boarding_mean":null,"alighting_mean":null,"transfer_mean":null,"bus_detail_source":null},"geometry":{"type":"Point","coordinates":[127.348076,36.3893]}},{"type":"Feature","properties":{"policy_type":"무차양 버스정류장","rank":83.0,"name":"원내동공영차고지","dong":null,"grid_id":"다바837105","score":33.44,"note":"월평균 이용량 1,778명","detail":"거주 nan · 활동 3등급(보통)","bus_usage_mean":1778.0,"bus_usage_grade":2,"resi_score":null,"resi_percentile":0.0,"resi_grade":null,"activity_score":58.54,"activity_percentile":61.1,"activity_grade":"3등급(보통)","stop_name":"원내동공영차고지","boarding_mean":null,"alighting_mean":null,"transfer_mean":null,"bus_detail_source":null},"geometry":{"type":"Point","coordinates":[127.318535,36.292538]}},{"type":"Feature","properties":{"policy_type":"무차양 버스정류장","rank":84.0,"name":"한텍","dong":null,"grid_id":"다바911249","score":32.0,"note":"월평균 이용량 1,178명","detail":"거주 nan · 활동 4등급(높음)","bus_usage_mean":1178.33,"bus_usage_grade":1,"resi_score":null,"resi_percentile":0.0,"resi_grade":null,"activity_score":60.57,"activity_percentile":72.5,"activity_grade":"4등급(높음)","stop_name":"한텍","boarding_mean":null,"alighting_mean":null,"transfer_mean":null,"bus_detail_source":null},"geometry":{"type":"Point","coordinates":[127.401106,36.422078]}},{"type":"Feature","properties":{"policy_type":"무차양 버스정류장","rank":85.0,"name":"신동천교","dong":"신동","grid_id":"다바888307","score":32.0,"note":"월평균 이용량 89명","detail":"거주 nan · 활동 4등급(높음)","bus_usage_mean":88.67,"bus_usage_grade":1,"resi_score":null,"resi_percentile":0.0,"resi_grade":null,"activity_score":60.56,"activity_percentile":72.5,"activity_grade":"4등급(높음)","stop_name":"신동천교","boarding_mean":null,"alighting_mean":null,"transfer_mean":null,"bus_detail_source":null},"geometry":{"type":"Point","coordinates":[127.37609,36.473938]}},{"type":"Feature","properties":{"policy_type":"무차양 버스정류장","rank":86.0,"name":"세동2통","dong":"세동","grid_id":"다바799097","score":31.71,"note":"월평균 이용량 616명","detail":"거주 1등급(매우 낮음) · 활동 4등급(높음)","bus_usage_mean":434.5,"bus_usage_grade":1,"resi_score":30.78,"resi_percentile":3.3,"resi_grade":"1등급(매우 낮음)","activity_score":60.09,"activity_percentile":69.3,"activity_grade":"4등급(높음)","stop_name":"세동2통","boarding_mean":null,"alighting_mean":null,"transfer_mean":null,"bus_detail_source":null},"geometry":{"type":"Point","coordinates":[127.27648,36.284878]}},{"type":"Feature","properties":{"policy_type":"무차양 버스정류장","rank":87.0,"name":"세동2통","dong":"세동","grid_id":"다바799097","score":31.71,"note":"월평균 이용량 434명","detail":"거주 1등급(매우 낮음) · 활동 4등급(높음)","bus_usage_mean":434.5,"bus_usage_grade":1,"resi_score":30.78,"resi_percentile":3.3,"resi_grade":"1등급(매우 낮음)","activity_score":60.09,"activity_percentile":69.3,"activity_grade":"4등급(높음)","stop_name":"세동2통","boarding_mean":null,"alighting_mean":null,"transfer_mean":null,"bus_detail_source":null},"geometry":{"type":"Point","coordinates":[127.27658,36.284863]}},{"type":"Feature","properties":{"policy_type":"무차양 버스정류장","rank":88.0,"name":"중세동","dong":"세동","grid_id":"다바797106","score":31.68,"note":"월평균 이용량 1,012명","detail":"거주 nan · 활동 4등급(높음)","bus_usage_mean":883.0,"bus_usage_grade":1,"resi_score":null,"resi_percentile":0.0,"resi_grade":null,"activity_score":60.41,"activity_percentile":71.7,"activity_grade":"4등급(높음)","stop_name":"중세동","boarding_mean":null,"alighting_mean":null,"transfer_mean":null,"bus_detail_source":null},"geometry":{"type":"Point","coordinates":[127.27438,36.29288]}},{"type":"Feature","properties":{"policy_type":"무차양 버스정류장","rank":89.0,"name":"중세동","dong":"세동","grid_id":"다바797106","score":31.68,"note":"월평균 이용량 883명","detail":"거주 nan · 활동 4등급(높음)","bus_usage_mean":883.0,"bus_usage_grade":1,"resi_score":null,"resi_percentile":0.0,"resi_grade":null,"activity_score":60.41,"activity_percentile":71.7,"activity_grade":"4등급(높음)","stop_name":"중세동","boarding_mean":null,"alighting_mean":null,"transfer_mean":null,"bus_detail_source":null},"geometry":{"type":"Point","coordinates":[127.27427,36.292896]}},{"type":"Feature","properties":{"policy_type":"무차양 버스정류장","rank":90.0,"name":"화물터미널","dong":"대정동","grid_id":"다바837132","score":31.32,"note":"월평균 이용량 자료 없음","detail":"거주 nan · 활동 4등급(높음)","bus_usage_mean":null,"bus_usage_grade":0,"resi_score":null,"resi_percentile":0.0,"resi_grade":null,"activity_score":61.75,"activity_percentile":78.3,"activity_grade":"4등급(높음)","stop_name":"화물터미널","boarding_mean":null,"alighting_mean":null,"transfer_mean":null,"bus_detail_source":null},"geometry":{"type":"Point","coordinates":[127.31892,36.31635]}},{"type":"Feature","properties":{"policy_type":"무차양 버스정류장","rank":91.0,"name":"천동천1교","dong":null,"grid_id":"다바867272","score":30.44,"note":"월평균 이용량 1,963명","detail":"거주 nan · 활동 3등급(보통)","bus_usage_mean":1963.0,"bus_usage_grade":2,"resi_score":null,"resi_percentile":0.0,"resi_grade":null,"activity_score":57.29,"activity_percentile":53.6,"activity_grade":"3등급(보통)","stop_name":"천동천1교","boarding_mean":null,"alighting_mean":null,"transfer_mean":null,"bus_detail_source":null},"geometry":{"type":"Point","coordinates":[127.35228,36.442398]}},{"type":"Feature","properties":{"policy_type":"무차양 버스정류장","rank":92.0,"name":"KT유성지사","dong":"장대동","grid_id":"다바851182","score":30.4,"note":"월평균 이용량 자료 없음","detail":"거주 nan · 활동 4등급(높음)","bus_usage_mean":null,"bus_usage_grade":0,"resi_score":null,"resi_percentile":0.0,"resi_grade":null,"activity_score":61.21,"activity_percentile":76.0,"activity_grade":"4등급(높음)","stop_name":"KT유성지사","boarding_mean":null,"alighting_mean":null,"transfer_mean":null,"bus_detail_source":null},"geometry":{"type":"Point","coordinates":[127.33486,36.361942]}},{"type":"Feature","properties":{"policy_type":"무차양 버스정류장","rank":93.0,"name":"탑립1통산의절","dong":"탑립동","grid_id":"다바908235","score":30.4,"note":"월평균 이용량 1,153명","detail":"거주 nan · 활동 4등급(높음)","bus_usage_mean":1153.0,"bus_usage_grade":1,"resi_score":null,"resi_percentile":0.0,"resi_grade":null,"activity_score":59.92,"activity_percentile":68.5,"activity_grade":"4등급(높음)","stop_name":"탑립1통산의절","boarding_mean":null,"alighting_mean":null,"transfer_mean":null,"bus_detail_source":null},"geometry":{"type":"Point","coordinates":[127.39847,36.409542]}},{"type":"Feature","properties":{"policy_type":"무차양 버스정류장","rank":94.0,"name":"성북1통","dong":null,"grid_id":"다바806130","score":30.28,"note":"월평균 이용량 595명","detail":"거주 3등급(보통) · 활동 3등급(보통)","bus_usage_mean":594.67,"bus_usage_grade":1,"resi_score":47.23,"resi_percentile":30.4,"resi_grade":"3등급(보통)","activity_score":55.88,"activity_percentile":45.4,"activity_grade":"3등급(보통)","stop_name":"성북1통","boarding_mean":null,"alighting_mean":null,"transfer_mean":null,"bus_detail_source":null},"geometry":{"type":"Point","coordinates":[127.28468,36.31466]}},{"type":"Feature","properties":{"policy_type":"무차양 버스정류장","rank":95.0,"name":"대한항공기술연구원","dong":"전민동","grid_id":"다바900228","score":29.08,"note":"월평균 이용량 2,848명","detail":"거주 nan · 활동 3등급(보통)","bus_usage_mean":2848.5,"bus_usage_grade":2,"resi_score":null,"resi_percentile":0.0,"resi_grade":null,"activity_score":56.67,"activity_percentile":50.2,"activity_grade":"3등급(보통)","stop_name":"대한항공기술연구원","boarding_mean":null,"alighting_mean":null,"transfer_mean":null,"bus_detail_source":null},"geometry":{"type":"Point","coordinates":[127.38879,36.40275]}},{"type":"Feature","properties":{"policy_type":"무차양 버스정류장","rank":96.0,"name":"대동2통","dong":"대동","grid_id":"다바907317","score":28.44,"note":"월평균 이용량 301명","detail":"거주 nan · 활동 4등급(높음)","bus_usage_mean":172.33,"bus_usage_grade":1,"resi_score":null,"resi_percentile":0.0,"resi_grade":null,"activity_score":58.94,"activity_percentile":63.6,"activity_grade":"4등급(높음)","stop_name":"대동2통","boarding_mean":null,"alighting_mean":null,"transfer_mean":null,"bus_detail_source":null},"geometry":{"type":"Point","coordinates":[127.39713,36.483562]}},{"type":"Feature","properties":{"policy_type":"무차양 버스정류장","rank":97.0,"name":"대동2통","dong":"대동","grid_id":"다바907317","score":28.44,"note":"월평균 이용량 172명","detail":"거주 nan · 활동 4등급(높음)","bus_usage_mean":172.33,"bus_usage_grade":1,"resi_score":null,"resi_percentile":0.0,"resi_grade":null,"activity_score":58.94,"activity_percentile":63.6,"activity_grade":"4등급(높음)","stop_name":"대동2통","boarding_mean":null,"alighting_mean":null,"transfer_mean":null,"bus_detail_source":null},"geometry":{"type":"Point","coordinates":[127.39722,36.48357]}},{"type":"Feature","properties":{"policy_type":"무차양 버스정류장","rank":98.0,"name":"신동천교","dong":"신동","grid_id":"다바889306","score":28.32,"note":"월평균 이용량 43명","detail":"거주 nan · 활동 4등급(높음)","bus_usage_mean":42.67,"bus_usage_grade":1,"resi_score":null,"resi_percentile":0.0,"resi_grade":null,"activity_score":58.87,"activity_percentile":63.3,"activity_grade":"4등급(높음)","stop_name":"신동천교","boarding_mean":null,"alighting_mean":null,"transfer_mean":null,"bus_detail_source":null},"geometry":{"type":"Point","coordinates":[127.37719,36.473835]}},{"type":"Feature","properties":{"policy_type":"무차양 버스정류장","rank":99.0,"name":"천동천3교","dong":null,"grid_id":"다바872279","score":27.76,"note":"월평균 이용량 461명","detail":"거주 nan · 활동 4등급(높음)","bus_usage_mean":461.33,"bus_usage_grade":1,"resi_score":null,"resi_percentile":0.0,"resi_grade":null,"activity_score":58.65,"activity_percentile":61.9,"activity_grade":"4등급(높음)","stop_name":"천동천3교","boarding_mean":null,"alighting_mean":null,"transfer_mean":null,"bus_detail_source":null},"geometry":{"type":"Point","coordinates":[127.35722,36.44883]}},{"type":"Feature","properties":{"policy_type":"무차양 버스정류장","rank":100.0,"name":"대동","dong":"대동","grid_id":"다바906312","score":27.76,"note":"월평균 이용량 347명","detail":"거주 nan · 활동 4등급(높음)","bus_usage_mean":347.0,"bus_usage_grade":1,"resi_score":null,"resi_percentile":0.0,"resi_grade":null,"activity_score":58.64,"activity_percentile":61.9,"activity_grade":"4등급(높음)","stop_name":"대동","boarding_mean":null,"alighting_mean":null,"transfer_mean":null,"bus_detail_source":null},"geometry":{"type":"Point","coordinates":[127.39551,36.47894]}},{"type":"Feature","properties":{"policy_type":"쿨링포그","rank":1.0,"name":"대전관평초등학교·대전관평중학교 통학로","dong":"관평동","grid_id":"다바900252","score":99.99,"note":"활동수요 최상위 · 직접 LST 최상위 · 취약도 최상위 · 다중모형 반복선정 · 가중치 변화에도 안정","detail":"평균 LST 41.39℃ · 상위10% 50.24℃ · 최고 54.19℃","mean_lst":41.38939760213564,"max_lst":54.18863,"top10_lst":50.237396,"time_activity_score":100.0,"sexage_score":100.0,"resident_grade45_pop_300m":1641,"activity_percentile":99.989352,"above33_ratio":0.8774928774928775,"selection_basis":"활동수요 최상위 · 직접 LST 최상위 · 취약도 최상위 · 다중모형 반복선정 · 가중치 변화에도 안정","source":"yuseong_cooling_fog_direct_lst_final10_enriched(2).xlsx"},"geometry":{"type":"MultiPolygon","coordinates":[[[[127.388444,36.425184],[127.38956,36.425185],[127.389561,36.424283],[127.388446,36.424282],[127.388444,36.425184]]]]}},{"type":"Feature","properties":{"policy_type":"쿨링포그","rank":2.0,"name":"충남대학교 정문과 대학 통학로","dong":"온천2동","grid_id":"다바860182","score":99.98,"note":"활동수요 최상위 · 직접 LST 높음 · 취약도 최상위 · 시설공백 큼 · 다중모형 반복선정 · 가중치 변화에도 안정","detail":"평균 LST 40.66℃ · 상위10% 49.59℃ · 최고 52.20℃","mean_lst":40.663440742878,"max_lst":52.19931,"top10_lst":49.590717,"time_activity_score":63.482308,"sexage_score":85.620746,"resident_grade45_pop_300m":1443,"activity_percentile":99.968055,"above33_ratio":0.8787878787878788,"selection_basis":"활동수요 최상위 · 직접 LST 높음 · 취약도 최상위 · 시설공백 큼 · 다중모형 반복선정 · 가중치 변화에도 안정","source":"yuseong_cooling_fog_direct_lst_final10_enriched(2).xlsx"},"geometry":{"type":"MultiPolygon","coordinates":[[[[127.343948,36.362027],[127.345063,36.362028],[127.345065,36.361127],[127.34395,36.361125],[127.343948,36.362027]]]]}},{"type":"Feature","properties":{"policy_type":"쿨링포그","rank":3.0,"name":"노은역과 노은역광장 생활권","dong":"노은1동","grid_id":"다바836196","score":99.83,"note":"활동수요 높음 · 직접 LST 중상위 · 취약도 높음 · 시설공백 큼 · 다중모형 반복선정 · 가중치 변화에도 안정","detail":"평균 LST 38.65℃ · 상위10% 47.65℃ · 최고 50.45℃","mean_lst":38.64595022319276,"max_lst":50.44931,"top10_lst":47.653694,"time_activity_score":45.985306,"sexage_score":50.543843,"resident_grade45_pop_300m":922,"activity_percentile":89.883931,"above33_ratio":0.7777777777777778,"selection_basis":"활동수요 높음 · 직접 LST 중상위 · 취약도 높음 · 시설공백 큼 · 다중모형 반복선정 · 가중치 변화에도 안정","source":"yuseong_cooling_fog_direct_lst_final10_enriched(2).xlsx"},"geometry":{"type":"MultiPolygon","coordinates":[[[[127.317167,36.37461],[127.318282,36.374612],[127.318284,36.37371],[127.317169,36.373709],[127.317167,36.37461]]]]}},{"type":"Feature","properties":{"policy_type":"쿨링포그","rank":4.0,"name":"반석역과 반석역광장 생활권","dong":"노은3동","grid_id":"다바832216","score":99.36,"note":"생활권 수요 확보 · 직접 LST 높음 · 취약도 매우 높음 · 시설공백 큼 · 다중모형 반복선정 · 가중치 변화에도 안정","detail":"평균 LST 39.57℃ · 상위10% 47.90℃ · 최고 50.58℃","mean_lst":39.57406026309298,"max_lst":50.575775,"top10_lst":47.895683,"time_activity_score":30.220186,"sexage_score":73.364921,"resident_grade45_pop_300m":437,"activity_percentile":89.362155,"above33_ratio":0.8324742268041238,"selection_basis":"생활권 수요 확보 · 직접 LST 높음 · 취약도 매우 높음 · 시설공백 큼 · 다중모형 반복선정 · 가중치 변화에도 안정","source":"yuseong_cooling_fog_direct_lst_final10_enriched(2).xlsx"},"geometry":{"type":"MultiPolygon","coordinates":[[[[127.312665,36.392634],[127.31378,36.392636],[127.313782,36.391734],[127.312667,36.391732],[127.312665,36.392634]]]]}},{"type":"Feature","properties":{"policy_type":"쿨링포그","rank":5.0,"name":"원신흥도서관·대전도안고등학교 통학로","dong":"원신흥동","grid_id":"다바854155","score":83.63,"note":"생활권 수요 확보 · 직접 LST 최상위 · 취약도 높음 · 시설공백 큼","detail":"평균 LST 43.33℃ · 상위10% 52.40℃ · 최고 55.14℃","mean_lst":43.33064708490481,"max_lst":55.142242,"top10_lst":52.396187,"time_activity_score":12.729767,"sexage_score":19.8194,"resident_grade45_pop_300m":2531,"activity_percentile":94.590565,"above33_ratio":0.9482758620689656,"selection_basis":"생활권 수요 확보 · 직접 LST 최상위 · 취약도 높음 · 시설공백 큼","source":"yuseong_cooling_fog_direct_lst_final10_enriched(2).xlsx"},"geometry":{"type":"MultiPolygon","coordinates":[[[[127.337311,36.337676],[127.338425,36.337678],[127.338427,36.336776],[127.337313,36.336775],[127.337311,36.337676]]]]}},{"type":"Feature","properties":{"policy_type":"살수차","rank":1.0,"name":"원신흥남로","dong":"원신흥동","grid_id":null,"score":94.94365669188456,"note":"원신흥동 최고 운영점수이며 전 구간이 고온 5등급","detail":"원신흥남로(원신흥동 구간) · 평균 LST 42.532612636700584℃ · 상위10% 52.11326890331818℃"},"geometry":{"type":"MultiLineString","coordinates":[[[127.338116,36.338264],[127.338116,36.338144],[127.338111,36.337699],[127.338093,36.336121],[127.338079,36.334903],[127.338079,36.334795],[127.33809,36.333535],[127.338091,36.333427],[127.338099,36.332503],[127.337967,36.332253]],[[127.338103,36.332253],[127.338219,36.332474],[127.338211,36.333426],[127.33821,36.333534],[127.338199,36.334794],[127.338199,36.334903],[127.338213,36.33612],[127.338236,36.33815],[127.338237,36.338258]]]}},{"type":"Feature","properties":{"policy_type":"살수차","rank":2.0,"name":"테크노2로","dong":"관평동","grid_id":null,"score":94.51491965916023,"note":"1860233200·1860233302부터 1860238600·1860238900까지의 양방향 연속구간","detail":"테크노2로 · 평균 LST 43.224223369323525℃ · 상위10% 51.41495909381563℃"},"geometry":{"type":"MultiLineString","coordinates":[[[127.388731,36.434079],[127.388831,36.43397],[127.389239,36.433766],[127.390168,36.433381],[127.390286,36.433333],[127.391418,36.432846],[127.391538,36.432799],[127.392802,36.432259],[127.392921,36.432209],[127.393541,36.431953],[127.393629,36.431879],[127.393729,36.431799],[127.394283,36.431377],[127.394384,36.431298],[127.394986,36.430822],[127.395086,36.430743],[127.396118,36.429929],[127.396217,36.429851],[127.396956,36.429272],[127.397252,36.429041],[127.397353,36.428962],[127.398361,36.428176],[127.398461,36.428103],[127.399439,36.427436],[127.399541,36.427367],[127.399962,36.427084],[127.400066,36.427014],[127.401558,36.42601],[127.401661,36.425941],[127.40226,36.425538],[127.402359,36.425471],[127.403539,36.424677],[127.403799,36.424502],[127.403903,36.424432],[127.40499,36.423701],[127.405093,36.423632],[127.406216,36.422876],[127.406319,36.422807],[127.40694,36.422389],[127.407043,36.422319],[127.408231,36.421519],[127.408702,36.421174],[127.408827,36.421083],[127.409315,36.420718],[127.40962,36.420458],[127.410411,36.419675],[127.410497,36.41959],[127.410801,36.419262],[127.411079,36.41885],[127.411338,36.418331],[127.411477,36.417911],[127.411546,36.417597],[127.411591,36.417184],[127.41159,36.416857],[127.411575,36.416737],[127.411539,36.416152],[127.411532,36.416044],[127.41145,36.414707],[127.41145,36.414598],[127.411384,36.413489],[127.411378,36.413381],[127.411271,36.411438]],[[127.411388,36.411391],[127.411498,36.413378],[127.411504,36.413486],[127.41157,36.414596],[127.411584,36.414704],[127.411666,36.416039],[127.411672,36.416147],[127.411709,36.41674],[127.41171,36.416861],[127.41172,36.416998],[127.411699,36.41733],[127.411624,36.417824],[127.411502,36.418238],[127.411332,36.418617],[127.411183,36.418911],[127.410896,36.419335],[127.410615,36.419641],[127.410531,36.419727],[127.410051,36.4202],[127.409701,36.420546],[127.409443,36.420766],[127.40832,36.421602],[127.407127,36.422403],[127.407024,36.422472],[127.406404,36.42289],[127.406301,36.422959],[127.406202,36.423026],[127.405178,36.423715],[127.405075,36.423784],[127.403988,36.424516],[127.403885,36.424585],[127.403625,36.42476],[127.403522,36.424829],[127.402461,36.425543],[127.40236,36.425611],[127.401734,36.426032],[127.401631,36.426102],[127.400151,36.427097],[127.400048,36.427167],[127.399627,36.42745],[127.399525,36.427519],[127.398535,36.428195],[127.398435,36.428269],[127.397446,36.42904],[127.397345,36.429119],[127.39705,36.42935],[127.39631,36.429929],[127.396211,36.430006],[127.395179,36.43082],[127.395079,36.430899],[127.394478,36.431375],[127.394375,36.431455],[127.393794,36.431898],[127.393696,36.431978],[127.393622,36.432041],[127.392981,36.432305],[127.392864,36.432354],[127.391601,36.432894],[127.391485,36.432948],[127.390355,36.433434],[127.390236,36.433483],[127.389714,36.433699],[127.389289,36.433875],[127.388904,36.434068],[127.388808,36.434173]]]}},{"type":"Feature","properties":{"policy_type":"살수차","rank":3.0,"name":"문지로315번길","dong":"전민동","grid_id":null,"score":94.40583896035075,"note":"전 구간이 고온 5등급이며 도로 고온점수가 높음","detail":"문지로315번길(전민동 구간) · 평균 LST 42.19578146920148℃ · 상위10% 51.17335027128009℃"},"geometry":{"type":"MultiLineString","coordinates":[[[127.405702,36.395779],[127.405568,36.395779]],[[127.405589,36.396011],[127.405568,36.395904],[127.405568,36.395779]],[[127.405568,36.395779],[127.405568,36.395671]],[[127.405568,36.395671],[127.405702,36.395671]],[[127.405568,36.395671],[127.405568,36.395413]],[[127.405702,36.395413],[127.405568,36.395413]],[[127.405568,36.395413],[127.405568,36.395305]],[[127.405568,36.395305],[127.405702,36.395305]],[[127.405568,36.395305],[127.405568,36.395004]],[[127.405702,36.395004],[127.405568,36.395004]],[[127.405568,36.395004],[127.405571,36.394892]],[[127.405571,36.394892],[127.405704,36.394896]],[[127.405571,36.394892],[127.405578,36.394721],[127.405578,36.394613]],[[127.405702,36.395779],[127.405702,36.395905],[127.405677,36.396012]],[[127.406952,36.395779],[127.406818,36.395779],[127.405702,36.395779]],[[127.405702,36.395671],[127.405702,36.395779]],[[127.405702,36.395671],[127.406818,36.395671],[127.406952,36.395671]],[[127.405702,36.395413],[127.405702,36.395671]],[[127.406952,36.395413],[127.406818,36.395413],[127.405702,36.395413]],[[127.405702,36.395305],[127.405702,36.395413]],[[127.405702,36.395305],[127.406818,36.395305],[127.406952,36.395305]],[[127.405702,36.395004],[127.405702,36.395305]],[[127.406818,36.395004],[127.405702,36.395004]],[[127.405704,36.394896],[127.405702,36.395004]],[[127.405704,36.394896],[127.406818,36.394896],[127.406952,36.394896]],[[127.405712,36.394613],[127.405712,36.394721],[127.405704,36.394896]]]}},{"type":"Feature","properties":{"policy_type":"살수차","rank":4.0,"name":"노은동로87번길","dong":"노은1동","grid_id":null,"score":93.83758833779343,"note":"노은1동 최고 운영점수이며 전 구간이 고온 5등급","detail":"노은동로87번길(노은1동 구간) · 평균 LST 42.25453521731198℃ · 상위10% 51.12911683771486℃"},"geometry":{"type":"MultiLineString","coordinates":[[[127.318052,36.368398],[127.318718,36.368399],[127.320404,36.368403],[127.320537,36.368411],[127.320718,36.368411],[127.32308,36.368416],[127.323377,36.368417],[127.323511,36.368415]],[[127.323513,36.368524],[127.323379,36.368525],[127.32308,36.368524],[127.322692,36.368524],[127.322305,36.368523],[127.320536,36.368519],[127.320402,36.368511],[127.318718,36.368507],[127.318053,36.368506]]]}},{"type":"Feature","properties":{"policy_type":"살수차","rank":5.0,"name":"진잠로140번길","dong":"진잠동","grid_id":null,"score":92.91281651247466,"note":"진잠 생활권의 대표 고온도로로 5등급 연장비율이 매우 높음","detail":"진잠로140번길(진잠동 구간) · 평균 LST 42.57000515547947℃ · 상위10% 51.496193504098585℃"},"geometry":{"type":"MultiLineString","coordinates":[[[127.31692,36.303291],[127.317344,36.302216],[127.317501,36.30175],[127.317554,36.301317],[127.317609,36.300873],[127.317642,36.300663],[127.317735,36.300114],[127.317823,36.299584],[127.317841,36.299476]],[[127.31794,36.299498],[127.31792,36.299611],[127.317834,36.300125],[127.317741,36.300674],[127.317656,36.301273],[127.317628,36.301332],[127.317569,36.301759],[127.317411,36.302233],[127.31699,36.303301],[127.316947,36.303404]]]}},{"type":"Feature","properties":{"policy_type":"살수차","rank":6.0,"name":"엑스포로","dong":"전민동","grid_id":null,"score":88.03002244008955,"note":"1860124103을 포함한 고온 4·5등급 연결구간으로 운영점수 88점 이상","detail":"엑스포로 · 평균 LST 41.496313782054635℃ · 상위10% 50.28055963311168℃"},"geometry":{"type":"MultiLineString","coordinates":[[[127.405062,36.390081],[127.405069,36.391979],[127.405067,36.392088],[127.405036,36.394613],[127.405036,36.394721],[127.405031,36.395684],[127.405029,36.396008],[127.405029,36.396124],[127.405028,36.39629],[127.405027,36.396398]]]}},{"type":"Feature","properties":{"policy_type":"살수차","rank":7.0,"name":"도안대로","dong":"온천1동","grid_id":null,"score":87.56788365451347,"note":"온천1동 대표 고온 간선도로이며 5등급 연장비율 100%","detail":"도안대로(온천1동 구간) · 평균 LST 41.074224826682304℃ · 상위10% 49.97149776015266℃"},"geometry":{"type":"MultiLineString","coordinates":[[[127.341436,36.353761],[127.34093,36.352923],[127.340879,36.352822],[127.339792,36.350238],[127.339792,36.350128],[127.339839,36.350047],[127.340005,36.348724],[127.339993,36.348603]],[[127.340127,36.348603],[127.340139,36.348726],[127.33997,36.350076],[127.339954,36.350104],[127.339925,36.350218],[127.341003,36.35278],[127.341058,36.352888],[127.341545,36.353695],[127.341602,36.353807]]]}},{"type":"Feature","properties":{"policy_type":"살수차","rank":8.0,"name":"복용로","dong":"학하동","grid_id":null,"score":82.5578929686487,"note":"학하동 최고 운영점수와 높은 고온 5등급 연장비율","detail":"복용로(학하동 구간) · 평균 LST 41.576109321645944℃ · 상위10% 49.80540033619783℃"},"geometry":{"type":"MultiLineString","coordinates":[[[127.311201,36.343138],[127.311325,36.343085],[127.312494,36.342581],[127.312612,36.342531],[127.313739,36.342062],[127.313858,36.342012],[127.315253,36.341432],[127.315372,36.341383],[127.316333,36.340995]],[[127.316393,36.341092],[127.315436,36.341478],[127.315317,36.341527],[127.31392,36.342108],[127.313801,36.342158],[127.312674,36.342627],[127.312555,36.342678],[127.31134,36.343201],[127.311202,36.343261]]]}},{"type":"Feature","properties":{"policy_type":"살수차","rank":9.0,"name":"월드컵대로","dong":"상대동","grid_id":null,"score":73.85019204029237,"note":"상대동 최고 운영점수로 간선도로 운행 효율을 확보","detail":"월드컵대로(상대동 구간) · 평균 LST 40.729550188379655℃ · 상위10% 50.04722432619663℃"},"geometry":{"type":"MultiLineString","coordinates":[[[127.326168,36.348519],[127.326281,36.34846],[127.330943,36.348501],[127.331063,36.348502],[127.332289,36.348502],[127.332432,36.348505],[127.333361,36.348481],[127.333496,36.348477],[127.334262,36.348457],[127.334396,36.348453],[127.335497,36.348424],[127.335623,36.348436],[127.335856,36.348497],[127.337924,36.348494],[127.338187,36.348439],[127.339017,36.348412],[127.339162,36.348406],[127.34004,36.348373],[127.340173,36.348376]],[[127.339176,36.348643],[127.339033,36.348649],[127.338187,36.348667],[127.337924,36.34861],[127.335841,36.348617],[127.335589,36.348551],[127.335472,36.348533],[127.334381,36.348562],[127.334247,36.348565],[127.333515,36.348585],[127.333381,36.348588],[127.332479,36.348612],[127.332342,36.348622],[127.331048,36.348622],[127.330928,36.348621],[127.326376,36.348581]]]}},{"type":"Feature","properties":{"policy_type":"살수차","rank":10.0,"name":"죽동로279번길","dong":"온천2동","grid_id":null,"score":62.40266785684426,"note":"온천2동 후보 중 운영점수가 가장 높아 권역 균형을 보완","detail":"죽동로279번길(온천2동 구간) · 평균 LST 40.46107632068467℃ · 상위10% 48.9996698870825℃"},"geometry":{"type":"MultiLineString","coordinates":[[[127.339685,36.370933],[127.338709,36.371157],[127.338466,36.371208],[127.338334,36.371225]],[[127.339814,36.370903],[127.340307,36.37232],[127.340322,36.372589],[127.340179,36.372622],[127.339461,36.372786],[127.338486,36.373008],[127.338347,36.37304]],[[127.338362,36.372923],[127.338498,36.372892],[127.338714,36.372843],[127.340142,36.372518],[127.340196,36.372506],[127.340177,36.372346],[127.340085,36.372082],[127.339924,36.371618],[127.339784,36.371218],[127.339685,36.370933]],[[127.338445,36.371101],[127.338673,36.371053],[127.339649,36.370829]],[[127.339649,36.370829],[127.339512,36.370432]],[[127.339641,36.370403],[127.339778,36.3708]],[[127.339685,36.370933],[127.339649,36.370829]],[[127.339649,36.370829],[127.339778,36.3708]],[[127.339814,36.370903],[127.339685,36.370933]],[[127.339778,36.3708],[127.339814,36.370903]]]}}]}